{"type":"FeatureCollection","features":[{"type":"Feature","properties":{"name":"North-west block","area_ha":161.678},"geometry":{"type":"Polygon","coordinates":[[[104.879888,12.611944],[104.8796299,12.6119253],[104.879608,12.609403],[104.879595,12.608078],[104.8795486,12.6067839],[104.879491,12.60518],[104.8779187,12.6055579],[104.873272,12.599088],[104.8768153,12.5986702],[104.878115,12.598517],[104.878462,12.597369],[104.8790089,12.595811],[104.8800506,12.5958956],[104.8813994,12.5960173],[104.8814734,12.5959199],[104.8814379,12.5957235],[104.882048,12.595776],[104.8821575,12.5945778],[104.8831097,12.5946147],[104.883101,12.595035],[104.883983,12.595116],[104.884015,12.594566],[104.8851501,12.5947783],[104.885218,12.594243],[104.8863106,12.5944371],[104.886405,12.59334],[104.886512,12.591909],[104.8881776,12.5921871],[104.888299,12.59102],[104.8891054,12.5909818],[104.8891661,12.5908966],[104.889159,12.5903356],[104.8891199,12.5900011],[104.8892629,12.5894908],[104.8893635,12.5892477],[104.8893961,12.5891064],[104.889326,12.5880451],[104.8913095,12.5878907],[104.8919206,12.5877836],[104.892066,12.5888011],[104.8919969,12.5888144],[104.8918199,12.5892174],[104.8916711,12.5892709],[104.8915545,12.5894141],[104.8915474,12.5897127],[104.8939337,12.5896352],[104.8939625,12.5900776],[104.8928363,12.5901111],[104.8928401,12.5904776],[104.8923307,12.5904802],[104.8923367,12.5901274],[104.891486,12.5901196],[104.8913543,12.5916551],[104.891291,12.5925789],[104.891262,12.5929163],[104.8948583,12.5931528],[104.8948121,12.5935145],[104.8912462,12.593218],[104.891165,12.593607],[104.89113,12.59359],[104.8908676,12.5952818],[104.8922609,12.5955019],[104.8921911,12.5958714],[104.8913677,12.5957383],[104.8913459,12.5961327],[104.892207,12.596275],[104.8921433,12.5966444],[104.8904685,12.596387],[104.89042,12.596689],[104.8903573,12.5971428],[104.8894587,12.5970309],[104.8893373,12.5978671],[104.8889747,12.5978114],[104.8889183,12.5987932],[104.8888907,12.5991947],[104.8883997,12.5991164],[104.8883641,12.5988596],[104.8880741,12.5990772],[104.8879409,12.5991726],[104.8877526,12.5992705],[104.8873601,12.5993591],[104.887475,12.5998529],[104.8876366,12.5998248],[104.8877758,12.5998242],[104.889353,12.600112],[104.889292,12.600517],[104.890278,12.600671],[104.890196,12.601785],[104.883456,12.601103],[104.883417,12.599298],[104.882749,12.598985],[104.882027,12.598917],[104.8819481,12.5988201],[104.8794165,12.5983979],[104.8793703,12.6003299],[104.8790667,12.6004223],[104.8800144,12.6057675],[104.88213,12.6060025],[104.882103,12.606578],[104.8821656,12.6093832],[104.8821987,12.6108678],[104.882301,12.615457],[104.879699,12.613695],[104.879888,12.611944]]]}},{"type":"Feature","properties":{"name":"Prom","area_ha":30.23},"geometry":{"type":"Polygon","coordinates":[[[104.9079402,12.5408379],[104.9079678,12.5406348],[104.9080467,12.5400816],[104.9081311,12.539747],[104.9081371,12.5397488],[104.9081374,12.5397476],[104.9082001,12.5397675],[104.9083198,12.5398031],[104.908419,12.5398371],[104.9084674,12.5398525],[104.9089118,12.5384764],[104.9094245,12.5363691],[104.9097791,12.5350241],[104.9097814,12.5350261],[104.9097831,12.5350197],[104.9103418,12.5355272],[104.9105104,12.5356472],[104.9106441,12.5357424],[104.9108007,12.5358706],[104.9110148,12.5360305],[104.9112526,12.5361974],[104.9113793,12.5362843],[104.9114958,12.5363858],[104.9115,12.5363895],[104.911738,12.5364964],[104.9120051,12.5366668],[104.9124485,12.5370543],[104.9129374,12.5374363],[104.9133449,12.537778],[104.9138548,12.5376323],[104.9142119,12.5375422],[104.9161137,12.5377611],[104.9155404,12.5381435],[104.9153217,12.5384065],[104.9152131,12.5386953],[104.915191,12.5389382],[104.9151148,12.5391678],[104.9150157,12.5394155],[104.9149889,12.5395638],[104.9149034,12.5399437],[104.9148319,12.5400975],[104.9146842,12.5401532],[104.9144792,12.5401984],[104.9138975,12.5399169],[104.9129072,12.5393971],[104.9128393,12.5393387],[104.9128794,12.539265],[104.9127988,12.5393872],[104.9122557,12.5402107],[104.9112393,12.5398127],[104.9109339,12.539693],[104.9109203,12.5396877],[104.9106432,12.5406718],[104.9104366,12.5414394],[104.9104288,12.5414334],[104.9101585,12.5423933],[104.9097732,12.5423353],[104.9097171,12.5423148],[104.9095159,12.5422411],[104.9093008,12.5421351],[104.9091987,12.5420318],[104.909025,12.5419313],[104.9085399,12.5415231],[104.9083658,12.541338],[104.9083124,12.5412676],[104.9082594,12.5412031],[104.9082019,12.5411492],[104.9081018,12.5410702],[104.9079224,12.5409856],[104.9079402,12.5408379]]]}},{"type":"Feature","properties":{"name":"Ta Top 1","area_ha":1.501},"geometry":{"type":"Polygon","coordinates":[[[104.920882,12.53477],[104.92072,12.534772],[104.920061,12.534787],[104.920054,12.534559],[104.920091,12.534479],[104.920161,12.534379],[104.920181,12.534089],[104.920023,12.534056],[104.9200408,12.5339289],[104.9201708,12.5332443],[104.920986,12.533322],[104.920882,12.53477]]]}},{"type":"Feature","properties":{"name":"Ta Top 2","area_ha":2.606},"geometry":{"type":"Polygon","coordinates":[[[104.919387,12.534416],[104.919677,12.534407],[104.919804,12.534348],[104.91983,12.534319],[104.919855,12.533984],[104.9200326,12.5339951],[104.9200246,12.534056],[104.9200774,12.5340685],[104.920179,12.534084],[104.920181,12.534089],[104.920161,12.534379],[104.920091,12.534479],[104.920054,12.534559],[104.92006,12.534786],[104.92072,12.534772],[104.920882,12.53477],[104.921582,12.534791],[104.921557,12.535051],[104.921077,12.535072],[104.921052,12.535474],[104.920897,12.535595],[104.920622,12.53549],[104.920479,12.535428],[104.920387,12.53541],[104.920161,12.535411],[104.920169,12.535876],[104.919878,12.536128],[104.91987,12.536248],[104.919536,12.536508],[104.919387,12.534416]]]}},{"type":"Feature","properties":{"name":"Ta Top 3","area_ha":3.736},"geometry":{"type":"Polygon","coordinates":[[[104.921881,12.536153],[104.921853,12.536385],[104.922565,12.536524],[104.922496,12.537035],[104.922229,12.53743],[104.921773,12.537976],[104.921539,12.538105],[104.921391,12.538258],[104.921289,12.538389],[104.9211,12.538618],[104.920939,12.538688],[104.92082,12.538697],[104.9203073,12.5386454],[104.9204654,12.5378081],[104.920722,12.537363],[104.921186,12.536639],[104.921209,12.536289],[104.921529,12.536322],[104.921551,12.536087],[104.921881,12.536153]]]}},{"type":"Feature","properties":{"name":"Ta Top 4","area_ha":1.851},"geometry":{"type":"Polygon","coordinates":[[[104.919746,12.537293],[104.91979,12.537209],[104.91963,12.537096],[104.919559,12.536559],[104.919581,12.536551],[104.919837,12.536335],[104.919944,12.536501],[104.920265,12.536481],[104.92026,12.536388],[104.920374,12.536391],[104.92035,12.536199],[104.920931,12.536149],[104.920958,12.536222],[104.920993,12.536321],[104.920844,12.536353],[104.920838,12.536615],[104.921186,12.536639],[104.920722,12.537363],[104.9204677,12.5378135],[104.919746,12.537293]]]}},{"type":"Feature","properties":{"name":"Ta Top 5","area_ha":0.541},"geometry":{"type":"Polygon","coordinates":[[[104.921551,12.536087],[104.921529,12.536322],[104.921209,12.536289],[104.921186,12.536639],[104.920838,12.536615],[104.920844,12.536353],[104.920993,12.536321],[104.920958,12.536222],[104.921119,12.536174],[104.921214,12.536133],[104.921224,12.535737],[104.920917,12.535631],[104.920921,12.535604],[104.921036,12.535504],[104.92136,12.535522],[104.921536,12.53546],[104.921551,12.536087]]]}},{"type":"Feature","properties":{"name":"KPT block 1","area_ha":0.517},"geometry":{"type":"Polygon","coordinates":[[[104.896164,12.588561],[104.896213,12.589126],[104.89552,12.588992],[104.895028,12.588589],[104.896164,12.588561]]]}},{"type":"Feature","properties":{"name":"KPT block 2","area_ha":0.111},"geometry":{"type":"Polygon","coordinates":[[[104.895077,12.588654],[104.8954523,12.589182],[104.895131,12.589221],[104.895077,12.588654]]]}},{"type":"Feature","properties":{"name":"KPT block 3","area_ha":5.285},"geometry":{"type":"Polygon","coordinates":[[[104.877233,12.594423],[104.877191,12.593339],[104.879379,12.593468],[104.879165,12.59568],[104.877391,12.595484],[104.877233,12.594423]]]}},{"type":"Feature","properties":{"name":"KPT block 4","area_ha":27.375},"geometry":{"type":"Polygon","coordinates":[[[104.879608,12.609403],[104.879595,12.608078],[104.879491,12.60518],[104.8799113,12.6050992],[104.8799155,12.6056674],[104.882365,12.605935],[104.882103,12.606578],[104.882301,12.615457],[104.879699,12.613695],[104.879888,12.611944],[104.87963,12.611937],[104.879608,12.609403]]]}},{"type":"Feature","properties":{"name":"KPT block 5","area_ha":115.4},"geometry":{"type":"Polygon","coordinates":[[[104.8799113,12.6050992],[104.879491,12.60518],[104.878018,12.605538],[104.873272,12.599088],[104.878115,12.598517],[104.878462,12.597369],[104.880886,12.597801],[104.881021,12.596535],[104.881505,12.59655],[104.881523,12.595715],[104.882048,12.595776],[104.88222,12.593728],[104.883103,12.593828],[104.883101,12.595035],[104.883983,12.595116],[104.884015,12.594566],[104.8851501,12.5947783],[104.885218,12.594243],[104.885843,12.594402],[104.8856632,12.5959549],[104.885957,12.595986],[104.886016,12.596906],[104.885094,12.596781],[104.885131,12.596024],[104.884097,12.595925],[104.88406,12.597502],[104.885846,12.597675],[104.8868031,12.5975691],[104.8868392,12.5961332],[104.886354,12.596064],[104.886459,12.594506],[104.887299,12.594668],[104.887225,12.594997],[104.887687,12.59509],[104.887824,12.594051],[104.888031,12.593556],[104.886405,12.59334],[104.886512,12.591909],[104.8881776,12.5921871],[104.888299,12.59102],[104.88926,12.591005],[104.889232,12.591348],[104.889896,12.591439],[104.8899001,12.5909476],[104.889225,12.590922],[104.889183,12.590343],[104.891052,12.590364],[104.891146,12.589482],[104.890829,12.589457],[104.890843,12.589115],[104.88944,12.589087],[104.889349,12.587994],[104.891397,12.587843],[104.891488,12.589478],[104.8915081,12.5898041],[104.891393,12.591446],[104.891375,12.592595],[104.891306,12.5929286],[104.8948583,12.5931528],[104.8948121,12.5935145],[104.8912462,12.593218],[104.891165,12.593607],[104.89113,12.59359],[104.890873,12.595258],[104.892317,12.59548],[104.892246,12.595881],[104.8914117,12.595748],[104.8913459,12.5961327],[104.892207,12.596275],[104.8921433,12.5966444],[104.8904685,12.596387],[104.89042,12.596689],[104.890366,12.597111],[104.8894947,12.5970171],[104.8893735,12.5978839],[104.8890376,12.5978139],[104.888974,12.598784],[104.888303,12.598759],[104.8883134,12.5988091],[104.887355,12.599058],[104.886781,12.599074],[104.88493,12.599686],[104.885064,12.600396],[104.887561,12.599922],[104.88755,12.599798],[104.889353,12.600112],[104.889292,12.600517],[104.890278,12.600671],[104.890196,12.601785],[104.883456,12.601103],[104.883417,12.599298],[104.882749,12.598985],[104.882027,12.598917],[104.8819481,12.5988201],[104.879264,12.598374],[104.879414,12.600407],[104.880199,12.605024],[104.8799113,12.6050992]]]}},{"type":"Feature","properties":{"name":"KPT block 6","area_ha":0.547},"geometry":{"type":"Polygon","coordinates":[[[104.888133,12.590025],[104.887184,12.590059],[104.887132,12.589573],[104.888135,12.589582],[104.888133,12.590025]]]}},{"type":"Feature","properties":{"name":"KPT block 7","area_ha":1.08},"geometry":{"type":"Polygon","coordinates":[[[104.887156,12.586103],[104.887754,12.586048],[104.887845,12.58745],[104.887149,12.587463],[104.887156,12.586103]]]}},{"type":"Feature","properties":{"name":"KPT block 8","area_ha":1.502},"geometry":{"type":"Polygon","coordinates":[[[104.8939337,12.5896352],[104.8939625,12.5900776],[104.8928363,12.5901111],[104.8928401,12.5904776],[104.8923307,12.5904802],[104.8923367,12.5901274],[104.891486,12.5901196],[104.8915028,12.5897177],[104.8939337,12.5896352]]]}},{"type":"Feature","properties":{"name":"KPT block 9","area_ha":1.241},"geometry":{"type":"Polygon","coordinates":[[[104.8855759,12.5812051],[104.886869,12.5812297],[104.8868442,12.5820455],[104.8855516,12.5819791],[104.8855759,12.5812051]]]}},{"type":"Feature","properties":{"name":"KPT block 10","area_ha":2.896},"geometry":{"type":"Polygon","coordinates":[[[104.8771416,12.6126057],[104.877153,12.614656],[104.876131,12.614585],[104.8761337,12.6119028],[104.8771416,12.6126057]]]}},{"type":"Feature","properties":{"name":"KPT block 11","area_ha":0.682},"geometry":{"type":"Polygon","coordinates":[[[104.878392,12.614738],[104.8789874,12.614627],[104.8790057,12.615588],[104.878362,12.6156031],[104.878392,12.614738]]]}},{"type":"Feature","properties":{"name":"KPT block 12","area_ha":14.846},"geometry":{"type":"Polygon","coordinates":[[[104.8755912,12.6161079],[104.8753077,12.6154826],[104.8750413,12.6154865],[104.875009,12.613806],[104.876127,12.613812],[104.8761337,12.6119028],[104.8771416,12.6126057],[104.877153,12.614656],[104.878392,12.614738],[104.878362,12.6156031],[104.87837,12.617998],[104.877122,12.618195],[104.877128,12.617777],[104.876212,12.617766],[104.876166,12.616422],[104.875065,12.616427],[104.875074,12.616105],[104.8755912,12.6161079]]]}},{"type":"Feature","properties":{"name":"KPT block 13","area_ha":5.779},"geometry":{"type":"Polygon","coordinates":[[[104.8838531,12.5846758],[104.8850197,12.5847778],[104.8851143,12.5827653],[104.8868774,12.5827415],[104.886918,12.5838966],[104.8863691,12.5839108],[104.886326,12.5848615],[104.8850134,12.5847832],[104.8849802,12.5860861],[104.8842195,12.5860287],[104.8842215,12.5859249],[104.8838018,12.5859079],[104.8838531,12.5846758]]]}}]}
