{"type":"FeatureCollection","features":[{"type":"Feature","properties":{"kind":"canal"},"geometry":{"type":"LineString","coordinates":[[104.9301766,12.5620927],[104.930185,12.563302]]}},{"type":"Feature","properties":{"kind":"canal"},"geometry":{"type":"LineString","coordinates":[[104.930185,12.563302],[104.9302,12.564012]]}},{"type":"Feature","properties":{"kind":"canal"},"geometry":{"type":"LineString","coordinates":[[104.9302,12.564012],[104.93022,12.564919]]}},{"type":"Feature","properties":{"kind":"canal"},"geometry":{"type":"LineString","coordinates":[[104.93022,12.564919],[104.930199,12.566193]]}},{"type":"Feature","properties":{"kind":"canal"},"geometry":{"type":"LineString","coordinates":[[104.930199,12.566193],[104.930459,12.566179]]}},{"type":"Feature","properties":{"kind":"canal"},"geometry":{"type":"LineString","coordinates":[[104.9304235,12.564931],[104.93022,12.564919]]}},{"type":"Feature","properties":{"kind":"canal"},"geometry":{"type":"LineString","coordinates":[[104.9304235,12.564931],[104.930459,12.566179]]}},{"type":"Feature","properties":{"kind":"canal"},"geometry":{"type":"LineString","coordinates":[[104.9304235,12.564931],[104.9306147,12.5649164]]}},{"type":"Feature","properties":{"kind":"canal"},"geometry":{"type":"LineString","coordinates":[[104.9306147,12.5649164],[104.9306727,12.5640833]]}},{"type":"Feature","properties":{"kind":"canal"},"geometry":{"type":"LineString","coordinates":[[104.9306727,12.5640833],[104.9302,12.564012]]}},{"type":"Feature","properties":{"kind":"canal"},"geometry":{"type":"LineString","coordinates":[[104.9306147,12.5649164],[104.9307868,12.5649778]]}},{"type":"Feature","properties":{"kind":"canal"},"geometry":{"type":"LineString","coordinates":[[104.9307868,12.5649778],[104.9311367,12.5651323]]}},{"type":"Feature","properties":{"kind":"canal"},"geometry":{"type":"LineString","coordinates":[[104.9311367,12.5651323],[104.931372,12.5634501]]}},{"type":"Feature","properties":{"kind":"canal"},"geometry":{"type":"LineString","coordinates":[[104.931372,12.5634501],[104.9309314,12.5634345]]}},{"type":"Feature","properties":{"kind":"canal"},"geometry":{"type":"LineString","coordinates":[[104.9309323,12.5634317],[104.9309187,12.5633553]]}},{"type":"Feature","properties":{"kind":"canal"},"geometry":{"type":"LineString","coordinates":[[104.9309187,12.5633553],[104.9307245,12.563343]]}},{"type":"Feature","properties":{"kind":"canal"},"geometry":{"type":"LineString","coordinates":[[104.9307245,12.563343],[104.9306727,12.5640833]]}},{"type":"Feature","properties":{"kind":"canal"},"geometry":{"type":"LineString","coordinates":[[104.9307245,12.563343],[104.930185,12.563302]]}},{"type":"Feature","properties":{"kind":"canal"},"geometry":{"type":"LineString","coordinates":[[104.931372,12.5634501],[104.9323173,12.5635817]]}},{"type":"Feature","properties":{"kind":"canal"},"geometry":{"type":"LineString","coordinates":[[104.9323173,12.5635817],[104.9322628,12.5636803],[104.9321318,12.5638586]]}},{"type":"Feature","properties":{"kind":"canal"},"geometry":{"type":"LineString","coordinates":[[104.9321318,12.5638586],[104.9319505,12.5639458]]}},{"type":"Feature","properties":{"kind":"canal"},"geometry":{"type":"LineString","coordinates":[[104.9319505,12.5639458],[104.9317076,12.5640024]]}},{"type":"Feature","properties":{"kind":"canal"},"geometry":{"type":"LineString","coordinates":[[104.9317076,12.5640024],[104.9315531,12.564093]]}},{"type":"Feature","properties":{"kind":"canal"},"geometry":{"type":"LineString","coordinates":[[104.9315531,12.564093],[104.9314787,12.5642014]]}},{"type":"Feature","properties":{"kind":"canal"},"geometry":{"type":"LineString","coordinates":[[104.9314787,12.5642014],[104.9313775,12.5644924]]}},{"type":"Feature","properties":{"kind":"canal"},"geometry":{"type":"LineString","coordinates":[[104.9313775,12.5644924],[104.9313229,12.5646117]]}},{"type":"Feature","properties":{"kind":"canal"},"geometry":{"type":"LineString","coordinates":[[104.9313229,12.5646117],[104.9311938,12.564724]]}},{"type":"Feature","properties":{"kind":"canal"},"geometry":{"type":"LineString","coordinates":[[104.9301766,12.5620927],[104.9315491,12.5620877]]}},{"type":"Feature","properties":{"kind":"canal"},"geometry":{"type":"LineString","coordinates":[[104.9315491,12.5620877],[104.9323838,12.5620814]]}},{"type":"Feature","properties":{"kind":"canal"},"geometry":{"type":"LineString","coordinates":[[104.931372,12.5634501],[104.9315491,12.5620877]]}},{"type":"Feature","properties":{"kind":"canal"},"geometry":{"type":"LineString","coordinates":[[104.9314583,12.5627861],[104.932367,12.562763]]}},{"type":"Feature","properties":{"kind":"canal"},"geometry":{"type":"LineString","coordinates":[[104.9323838,12.5620814],[104.932367,12.562763]]}},{"type":"Feature","properties":{"kind":"canal"},"geometry":{"type":"LineString","coordinates":[[104.9323838,12.5620814],[104.9329564,12.5620816]]}},{"type":"Feature","properties":{"kind":"canal"},"geometry":{"type":"LineString","coordinates":[[104.9327884,12.5624947],[104.9329564,12.5620816]]}},{"type":"Feature","properties":{"kind":"canal"},"geometry":{"type":"LineString","coordinates":[[104.9327884,12.5624947],[104.9325622,12.5632208]]}},{"type":"Feature","properties":{"kind":"canal"},"geometry":{"type":"LineString","coordinates":[[104.932367,12.562763],[104.9323475,12.5632082]]}},{"type":"Feature","properties":{"kind":"canal"},"geometry":{"type":"LineString","coordinates":[[104.9325622,12.5632208],[104.9323475,12.5632082]]}},{"type":"Feature","properties":{"kind":"canal"},"geometry":{"type":"LineString","coordinates":[[104.9314162,12.5631104],[104.9323475,12.5632082]]}},{"type":"Feature","properties":{"kind":"canal"},"geometry":{"type":"LineString","coordinates":[[104.9323173,12.5635817],[104.9323475,12.5632082]]}},{"type":"Feature","properties":{"kind":"canal"},"geometry":{"type":"LineString","coordinates":[[104.9325622,12.5632208],[104.9329254,12.56325]]}},{"type":"Feature","properties":{"kind":"canal"},"geometry":{"type":"LineString","coordinates":[[104.9329254,12.56325],[104.9328151,12.5640501]]}},{"type":"Feature","properties":{"kind":"canal"},"geometry":{"type":"LineString","coordinates":[[104.9328151,12.5640501],[104.9327425,12.5640379]]}},{"type":"Feature","properties":{"kind":"canal"},"geometry":{"type":"LineString","coordinates":[[104.9327425,12.5640379],[104.9326722,12.563949]]}},{"type":"Feature","properties":{"kind":"canal"},"geometry":{"type":"LineString","coordinates":[[104.9326722,12.563949],[104.9326256,12.5638824]]}},{"type":"Feature","properties":{"kind":"canal"},"geometry":{"type":"LineString","coordinates":[[104.9326256,12.5638824],[104.9325843,12.5638126]]}},{"type":"Feature","properties":{"kind":"canal"},"geometry":{"type":"LineString","coordinates":[[104.9325843,12.5638126],[104.9325219,12.5637241]]}},{"type":"Feature","properties":{"kind":"canal"},"geometry":{"type":"LineString","coordinates":[[104.9324071,12.5636252],[104.9325219,12.5637241]]}},{"type":"Feature","properties":{"kind":"canal"},"geometry":{"type":"LineString","coordinates":[[104.9324071,12.5636252],[104.9323173,12.5635817]]}},{"type":"Feature","properties":{"kind":"canal"},"geometry":{"type":"LineString","coordinates":[[104.9327884,12.5624947],[104.933022,12.5625591]]}},{"type":"Feature","properties":{"kind":"canal"},"geometry":{"type":"LineString","coordinates":[[104.9330901,12.5620861],[104.9329564,12.5620816]]}},{"type":"Feature","properties":{"kind":"canal"},"geometry":{"type":"LineString","coordinates":[[104.933022,12.5625591],[104.9330901,12.5620861]]}},{"type":"Feature","properties":{"kind":"canal"},"geometry":{"type":"LineString","coordinates":[[104.9337023,12.5620859],[104.9330901,12.5620861]]}},{"type":"Feature","properties":{"kind":"canal"},"geometry":{"type":"LineString","coordinates":[[104.933022,12.5625591],[104.9336464,12.5626501]]}},{"type":"Feature","properties":{"kind":"canal"},"geometry":{"type":"LineString","coordinates":[[104.9337023,12.5620859],[104.9336464,12.5626501]]}},{"type":"Feature","properties":{"kind":"canal"},"geometry":{"type":"LineString","coordinates":[[104.933022,12.5625591],[104.9329254,12.56325]]}},{"type":"Feature","properties":{"kind":"canal"},"geometry":{"type":"LineString","coordinates":[[104.9336464,12.5626501],[104.9336418,12.5629086]]}},{"type":"Feature","properties":{"kind":"canal"},"geometry":{"type":"LineString","coordinates":[[104.9336715,12.5631407],[104.9336418,12.5629086]]}},{"type":"Feature","properties":{"kind":"canal"},"geometry":{"type":"LineString","coordinates":[[104.9336715,12.5631407],[104.9337885,12.5631445]]}},{"type":"Feature","properties":{"kind":"canal"},"geometry":{"type":"LineString","coordinates":[[104.9337023,12.5620859],[104.9345231,12.5620848]]}},{"type":"Feature","properties":{"kind":"canal"},"geometry":{"type":"LineString","coordinates":[[104.9345357,12.5621912],[104.9345231,12.5620848]]}},{"type":"Feature","properties":{"kind":"canal"},"geometry":{"type":"LineString","coordinates":[[104.9345357,12.5621912],[104.9344601,12.5623791]]}},{"type":"Feature","properties":{"kind":"canal"},"geometry":{"type":"LineString","coordinates":[[104.9344601,12.5623791],[104.9337885,12.5631445]]}},{"type":"Feature","properties":{"kind":"canal"},"geometry":{"type":"LineString","coordinates":[[104.9262743,12.569366],[104.9263158,12.5694964],[104.9266457,12.5695361],[104.9276629,12.5696586],[104.927966,12.5695365],[104.9281129,12.5694773],[104.9281894,12.5695366],[104.9282122,12.5695543],[104.928345,12.5695381],[104.9283782,12.5695366],[104.9289762,12.5695101],[104.9293158,12.5691751],[104.9296822,12.5688136],[104.9298882,12.5686103],[104.9299216,12.5684056],[104.9283307,12.5686267],[104.9283363,12.5680021],[104.9277184,12.5680577],[104.9277176,12.5690715],[104.926314,12.5691969],[104.9262743,12.569366]]}},{"type":"Feature","properties":{"kind":"canal"},"geometry":{"type":"LineString","coordinates":[[104.9263021,12.5691921],[104.9262041,12.568749],[104.9261374,12.5685528],[104.926128,12.5682189]]}},{"type":"Feature","properties":{"kind":"canal"},"geometry":{"type":"LineString","coordinates":[[104.926128,12.5682189],[104.926102,12.5679214]]}},{"type":"Feature","properties":{"kind":"canal"},"geometry":{"type":"LineString","coordinates":[[104.9261461,12.5673397],[104.926102,12.5679214]]}},{"type":"Feature","properties":{"kind":"canal"},"geometry":{"type":"LineString","coordinates":[[104.9261461,12.5673397],[104.9260614,12.5658064]]}},{"type":"Feature","properties":{"kind":"canal"},"geometry":{"type":"LineString","coordinates":[[104.9260614,12.5658064],[104.926553,12.565798]]}},{"type":"Feature","properties":{"kind":"canal"},"geometry":{"type":"LineString","coordinates":[[104.926128,12.5682189],[104.9265745,12.5681765],[104.9269178,12.5681285],[104.926967,12.5681216],[104.9269676,12.5681215],[104.9273755,12.5680771],[104.927377,12.568077],[104.927377,12.568078],[104.92735,12.567233],[104.926944,12.567276],[104.9269676,12.5681215],[104.926967,12.5681216],[104.926944,12.567276],[104.926559,12.567284],[104.9261461,12.5673397],[104.926157,12.5673382],[104.9261571,12.5673396],[104.926559,12.567284],[104.926944,12.567276],[104.92735,12.567233],[104.927685,12.567177],[104.928007,12.567152],[104.928039,12.568019],[104.927745,12.568045],[104.9274166,12.5680745],[104.9277128,12.5680553],[104.9277128,12.5680577]]}},{"type":"Feature","properties":{"kind":"canal"},"geometry":{"type":"LineString","coordinates":[[104.9265745,12.5681765],[104.926559,12.567284]]}},{"type":"Feature","properties":{"kind":"canal"},"geometry":{"type":"LineString","coordinates":[[104.926553,12.565798],[104.926559,12.567284]]}},{"type":"Feature","properties":{"kind":"canal"},"geometry":{"type":"LineString","coordinates":[[104.926553,12.565798],[104.926563,12.565689],[104.92692,12.565679],[104.926944,12.567276],[104.92692,12.565679],[104.927339,12.5657],[104.9273384,12.5656634],[104.927681,12.5657076],[104.927684,12.565708],[104.927685,12.567177],[104.92735,12.567233],[104.927339,12.5657],[104.927335,12.565663],[104.927324,12.564728],[104.9269384,12.5647635],[104.9269212,12.5644419],[104.926908,12.564084],[104.92731,12.564049],[104.927324,12.564728],[104.927666,12.564702],[104.927681,12.565692],[104.928359,12.565699],[104.928362,12.567116],[104.928007,12.567152]]}},{"type":"Feature","properties":{"kind":"canal"},"geometry":{"type":"LineString","coordinates":[[104.927685,12.567177],[104.9277184,12.5680577]]}},{"type":"Feature","properties":{"kind":"canal"},"geometry":{"type":"LineString","coordinates":[[104.928362,12.567116],[104.9283703,12.5679812]]}},{"type":"Feature","properties":{"kind":"canal"},"geometry":{"type":"LineString","coordinates":[[104.928039,12.568019],[104.9283703,12.5679812]]}},{"type":"Feature","properties":{"kind":"canal"},"geometry":{"type":"LineString","coordinates":[[104.9283695,12.5685753],[104.9283703,12.5679812]]}},{"type":"Feature","properties":{"kind":"canal"},"geometry":{"type":"LineString","coordinates":[[104.9283695,12.5685753],[104.9289006,12.5684957],[104.9289005,12.5684948],[104.9291726,12.5684554],[104.9291726,12.5684552],[104.9294032,12.5684312],[104.9294032,12.5684306],[104.9295797,12.56841],[104.9299104,12.5683653],[104.9298703,12.5671129],[104.9298701,12.5671061],[104.929559,12.567121],[104.929554,12.567364],[104.929386,12.56737],[104.929376,12.567873],[104.929157,12.567885],[104.928886,12.567955],[104.9283703,12.5679812]]}},{"type":"Feature","properties":{"kind":"canal"},"geometry":{"type":"LineString","coordinates":[[104.9289005,12.5684948],[104.928886,12.567955],[104.929157,12.567885],[104.9291726,12.5684552],[104.9294032,12.5684312],[104.9294032,12.5684306],[104.929376,12.567873],[104.929386,12.56737],[104.929554,12.567364],[104.9295797,12.56841]]}},{"type":"Feature","properties":{"kind":"canal"},"geometry":{"type":"LineString","coordinates":[[104.92987,12.5637077],[104.92953,12.563727],[104.92987,12.5637083],[104.9298775,12.5671127],[104.9298703,12.5671129],[104.9298701,12.5671061],[104.929559,12.567121],[104.929554,12.567364],[104.929386,12.56737],[104.929357,12.565233],[104.929532,12.565223],[104.929524,12.564473],[104.929333,12.564501],[104.929143,12.564512],[104.928838,12.564559],[104.928352,12.564622],[104.928043,12.564657],[104.927666,12.564702],[104.927643,12.564022],[104.92731,12.564049]]}},{"type":"Feature","properties":{"kind":"canal"},"geometry":{"type":"LineString","coordinates":[[104.927652,12.564018],[104.92782,12.563979],[104.928018,12.563978],[104.928043,12.564657],[104.928352,12.564622],[104.928354,12.564587],[104.928346,12.563935],[104.928828,12.563823],[104.928838,12.564559],[104.929143,12.564512],[104.929124,12.563779],[104.92953,12.563727],[104.929524,12.564473],[104.929333,12.564501],[104.929357,12.565233]]}},{"type":"Feature","properties":{"kind":"canal"},"geometry":{"type":"LineString","coordinates":[[104.9265224,12.5656821],[104.926501,12.5648186],[104.9268535,12.564774],[104.9265054,12.5648147],[104.9265037,12.5642689],[104.9265033,12.5641375],[104.9269021,12.5640862],[104.9269119,12.564269],[104.9269212,12.5644419],[104.926933,12.564764],[104.926933,12.5647648],[104.92692,12.565679],[104.9267719,12.5656802],[104.9265224,12.5656821]]}},{"type":"Feature","properties":{"kind":"canal"},"geometry":{"type":"LineString","coordinates":[[104.9255611,12.5641379],[104.9255682,12.563651],[104.9255695,12.5636509],[104.9255785,12.5632443],[104.9255716,12.5629988],[104.9258368,12.5629995],[104.925569,12.5629952],[104.9255522,12.5626017],[104.9256554,12.5626067],[104.9257539,12.5626099],[104.9258217,12.5626912],[104.9258633,12.5626941],[104.9258838,12.5627531],[104.9259022,12.5628106],[104.9259556,12.5628471],[104.9259694,12.5628894],[104.925997,12.5629556],[104.9260244,12.5630025],[104.9260216,12.5630025],[104.9258368,12.5629995],[104.9258361,12.5629995]]}},{"type":"Feature","properties":{"kind":"canal"},"geometry":{"type":"LineString","coordinates":[[104.9255611,12.5641379],[104.9260652,12.5641329],[104.9260537,12.5636157],[104.9260442,12.5636164],[104.9255695,12.5636509],[104.9255682,12.563651]]}},{"type":"Feature","properties":{"kind":"canal"},"geometry":{"type":"LineString","coordinates":[[104.9260213,12.563],[104.9258368,12.5629995],[104.9260216,12.5630025],[104.926052,12.5632323],[104.9260384,12.5633195],[104.9260459,12.5634925],[104.9260442,12.5636164],[104.9260537,12.5636157]]}},{"type":"Feature","properties":{"kind":"canal"},"geometry":{"type":"LineString","coordinates":[[104.92555,12.5625741],[104.9257656,12.5625901],[104.92574,12.5624449],[104.9257193,12.56235],[104.9257157,12.5622443],[104.9257274,12.5621688],[104.9257109,12.5621102],[104.9255814,12.562105],[104.9255475,12.5621209],[104.9255609,12.5623341],[104.9255582,12.5625136],[104.92555,12.5625741],[104.9255945,12.5625774]]}},{"type":"Feature","properties":{"kind":"canal"},"geometry":{"type":"LineString","coordinates":[[104.9260758,12.5630233],[104.9262876,12.5630326],[104.9264593,12.5630228],[104.9267242,12.5630113],[104.926808,12.5629625],[104.9268054,12.5628778],[104.9267366,12.5628165],[104.9263701,12.5628453],[104.9260954,12.5628691],[104.9260198,12.5628901],[104.9260758,12.5630233]]}},{"type":"Feature","properties":{"kind":"canal"},"geometry":{"type":"LineString","coordinates":[[104.926908,12.564084],[104.92731,12.564049],[104.927643,12.564022],[104.927652,12.564018],[104.92782,12.563979],[104.9277675,12.5627971],[104.927752,12.562447],[104.9279,12.562436],[104.9278745,12.5621144],[104.9273333,12.5621002],[104.927353,12.562446],[104.927752,12.562447],[104.9277675,12.5627971],[104.926915,12.56282],[104.926914,12.562466],[104.926949,12.562451],[104.927353,12.562446],[104.9273311,12.5620979],[104.926931,12.562105],[104.926949,12.562451],[104.926914,12.562466],[104.926915,12.56282],[104.926908,12.564084]]}},{"type":"Feature","properties":{"kind":"canal"},"geometry":{"type":"LineString","coordinates":[[104.928018,12.563978],[104.928346,12.563935],[104.928349,12.563025],[104.928538,12.563255],[104.928829,12.563103],[104.92883,12.563665],[104.928828,12.563823],[104.929124,12.563779],[104.929127,12.563169],[104.9292909,12.5631838],[104.9298879,12.5632874],[104.9298706,12.5637082],[104.92987,12.5637083],[104.92987,12.5637077]]}},{"type":"Feature","properties":{"kind":"canal"},"geometry":{"type":"LineString","coordinates":[[104.9299052,12.5632813],[104.9299019,12.5621009],[104.9293264,12.5621018],[104.9293263,12.5621053],[104.9292895,12.5629234],[104.9292781,12.5631751],[104.929127,12.563169],[104.929119,12.563067],[104.928829,12.563103],[104.928828,12.562444],[104.928559,12.562438],[104.928349,12.562415],[104.928344,12.562431],[104.928349,12.563025],[104.928346,12.563935],[104.928018,12.563978],[104.9279,12.562436],[104.928349,12.562415],[104.9283415,12.5621114],[104.9288027,12.5621216],[104.928828,12.562444],[104.9288028,12.5621224],[104.9291282,12.5621429],[104.929119,12.563067],[104.929127,12.563169],[104.9292781,12.5631751],[104.9292895,12.5629234],[104.9293263,12.5621053],[104.9291282,12.5621429],[104.9288028,12.5621224]]}},{"type":"Feature","properties":{"kind":"canal"},"geometry":{"type":"LineString","coordinates":[[104.9278744,12.5621141],[104.9283391,12.5621114],[104.928349,12.562415],[104.9283415,12.5621114]]}},{"type":"Feature","properties":{"kind":"canal"},"geometry":{"type":"LineString","coordinates":[[104.928886,12.567955],[104.928874,12.566156]]}},{"type":"Feature","properties":{"kind":"canal"},"geometry":{"type":"LineString","coordinates":[[104.928838,12.564559],[104.928855,12.565709]]}},{"type":"Feature","properties":{"kind":"canal"},"geometry":{"type":"LineString","coordinates":[[104.928874,12.566156],[104.928855,12.565709]]}},{"type":"Feature","properties":{"kind":"canal"},"geometry":{"type":"LineString","coordinates":[[104.928359,12.565699],[104.928352,12.564622]]}},{"type":"Feature","properties":{"kind":"canal"},"geometry":{"type":"LineString","coordinates":[[104.928359,12.565699],[104.928855,12.565709]]}},{"type":"Feature","properties":{"kind":"canal"},"geometry":{"type":"LineString","coordinates":[[104.928874,12.566156],[104.929144,12.566156]]}},{"type":"Feature","properties":{"kind":"canal"},"geometry":{"type":"LineString","coordinates":[[104.929157,12.567885],[104.929144,12.566156]]}},{"type":"Feature","properties":{"kind":"canal"},"geometry":{"type":"LineString","coordinates":[[104.929143,12.564512],[104.929144,12.566156]]}},{"type":"Feature","properties":{"kind":"canal"},"geometry":{"type":"LineString","coordinates":[[104.929532,12.565223],[104.929559,12.567121]]}},{"type":"Feature","properties":{"kind":"canal"},"geometry":{"type":"LineString","coordinates":[[104.9299052,12.5632813],[104.9298879,12.5632874]]}},{"type":"Feature","properties":{"kind":"canal"},"geometry":{"type":"LineString","coordinates":[[104.921651,12.564861],[104.922283,12.564815],[104.922671,12.56485],[104.922969,12.564856]]}},{"type":"Feature","properties":{"kind":"canal"},"geometry":{"type":"LineString","coordinates":[[104.920373,12.563618],[104.9204252,12.5640533]]}},{"type":"Feature","properties":{"kind":"canal"},"geometry":{"type":"LineString","coordinates":[[104.9204252,12.5640533],[104.9211338,12.5639105]]}},{"type":"Feature","properties":{"kind":"canal"},"geometry":{"type":"LineString","coordinates":[[104.9211338,12.5639105],[104.9211145,12.5637877],[104.9210712,12.5635266],[104.9210708,12.5635267]]}},{"type":"Feature","properties":{"kind":"canal"},"geometry":{"type":"LineString","coordinates":[[104.920373,12.563618],[104.9205403,12.5635686],[104.9205576,12.5634983],[104.9205587,12.5634984]]}},{"type":"Feature","properties":{"kind":"canal"},"geometry":{"type":"LineString","coordinates":[[104.9205587,12.5634984],[104.92081,12.5634988]]}},{"type":"Feature","properties":{"kind":"canal"},"geometry":{"type":"LineString","coordinates":[[104.92081,12.5634988],[104.9210708,12.5635267]]}},{"type":"Feature","properties":{"kind":"canal"},"geometry":{"type":"LineString","coordinates":[[104.9205587,12.5634984],[104.9205861,12.5633902]]}},{"type":"Feature","properties":{"kind":"canal"},"geometry":{"type":"LineString","coordinates":[[104.9205661,12.5633483],[104.9205861,12.5633902]]}},{"type":"Feature","properties":{"kind":"canal"},"geometry":{"type":"LineString","coordinates":[[104.9205661,12.5633483],[104.9204605,12.563294]]}},{"type":"Feature","properties":{"kind":"canal"},"geometry":{"type":"LineString","coordinates":[[104.9204605,12.563294],[104.9204309,12.5630597]]}},{"type":"Feature","properties":{"kind":"canal"},"geometry":{"type":"LineString","coordinates":[[104.9204309,12.5630597],[104.9204032,12.5627362]]}},{"type":"Feature","properties":{"kind":"canal"},"geometry":{"type":"LineString","coordinates":[[104.9204032,12.5627362],[104.9204145,12.562214]]}},{"type":"Feature","properties":{"kind":"canal"},"geometry":{"type":"LineString","coordinates":[[104.9204145,12.562214],[104.9204491,12.5621688]]}},{"type":"Feature","properties":{"kind":"canal"},"geometry":{"type":"LineString","coordinates":[[104.9204491,12.5621688],[104.9207773,12.5621422]]}},{"type":"Feature","properties":{"kind":"canal"},"geometry":{"type":"LineString","coordinates":[[104.9208005,12.5626988],[104.9207773,12.5621422]]}},{"type":"Feature","properties":{"kind":"canal"},"geometry":{"type":"LineString","coordinates":[[104.9208096,12.5630467],[104.9208005,12.5626988]]}},{"type":"Feature","properties":{"kind":"canal"},"geometry":{"type":"LineString","coordinates":[[104.92081,12.5634988],[104.9208096,12.5630467]]}},{"type":"Feature","properties":{"kind":"canal"},"geometry":{"type":"LineString","coordinates":[[104.9210708,12.5635267],[104.9217431,12.5634926]]}},{"type":"Feature","properties":{"kind":"canal"},"geometry":{"type":"LineString","coordinates":[[104.9216664,12.5630136],[104.9208096,12.5630467]]}},{"type":"Feature","properties":{"kind":"canal"},"geometry":{"type":"LineString","coordinates":[[104.921638,12.56268],[104.9208005,12.5626988]]}},{"type":"Feature","properties":{"kind":"canal"},"geometry":{"type":"LineString","coordinates":[[104.9215148,12.5621673],[104.9207773,12.5621422]]}},{"type":"Feature","properties":{"kind":"canal"},"geometry":{"type":"LineString","coordinates":[[104.921638,12.56268],[104.9215148,12.5621673]]}},{"type":"Feature","properties":{"kind":"canal"},"geometry":{"type":"LineString","coordinates":[[104.9216664,12.5630136],[104.921638,12.56268]]}},{"type":"Feature","properties":{"kind":"canal"},"geometry":{"type":"LineString","coordinates":[[104.9217431,12.5634926],[104.9216664,12.5630136]]}},{"type":"Feature","properties":{"kind":"canal"},"geometry":{"type":"LineString","coordinates":[[104.9215148,12.5621673],[104.922801,12.5621772]]}},{"type":"Feature","properties":{"kind":"canal"},"geometry":{"type":"LineString","coordinates":[[104.9227808,12.5626722],[104.921638,12.56268]]}},{"type":"Feature","properties":{"kind":"canal"},"geometry":{"type":"LineString","coordinates":[[104.9227808,12.5626722],[104.9228011,12.5621751]]}},{"type":"Feature","properties":{"kind":"canal"},"geometry":{"type":"LineString","coordinates":[[104.9227808,12.5626722],[104.9234615,12.5626394]]}},{"type":"Feature","properties":{"kind":"canal"},"geometry":{"type":"LineString","coordinates":[[104.922801,12.5621772],[104.9234019,12.5621794]]}},{"type":"Feature","properties":{"kind":"canal"},"geometry":{"type":"LineString","coordinates":[[104.9234615,12.5626394],[104.9234019,12.5621794]]}},{"type":"Feature","properties":{"kind":"canal"},"geometry":{"type":"LineString","coordinates":[[104.9234615,12.5626394],[104.9234961,12.5629551]]}},{"type":"Feature","properties":{"kind":"canal"},"geometry":{"type":"LineString","coordinates":[[104.9227808,12.5626722],[104.9227638,12.5629815]]}},{"type":"Feature","properties":{"kind":"canal"},"geometry":{"type":"LineString","coordinates":[[104.9227638,12.5629815],[104.9234961,12.5629551]]}},{"type":"Feature","properties":{"kind":"canal"},"geometry":{"type":"LineString","coordinates":[[104.9227638,12.5629815],[104.9227372,12.5633615]]}},{"type":"Feature","properties":{"kind":"canal"},"geometry":{"type":"LineString","coordinates":[[104.9227372,12.5633615],[104.923518,12.5633662]]}},{"type":"Feature","properties":{"kind":"canal"},"geometry":{"type":"LineString","coordinates":[[104.9234961,12.5629551],[104.923518,12.5633662]]}},{"type":"Feature","properties":{"kind":"canal"},"geometry":{"type":"LineString","coordinates":[[104.923518,12.5633662],[104.9238728,12.5633803]]}},{"type":"Feature","properties":{"kind":"canal"},"geometry":{"type":"LineString","coordinates":[[104.9238652,12.5631192],[104.9238728,12.5633803]]}},{"type":"Feature","properties":{"kind":"canal"},"geometry":{"type":"LineString","coordinates":[[104.9238312,12.5630761],[104.9238652,12.5631192]]}},{"type":"Feature","properties":{"kind":"canal"},"geometry":{"type":"LineString","coordinates":[[104.9238312,12.5630761],[104.9236399,12.5630091],[104.923604,12.5629606]]}},{"type":"Feature","properties":{"kind":"canal"},"geometry":{"type":"LineString","coordinates":[[104.923604,12.5629606],[104.9234961,12.5629551]]}},{"type":"Feature","properties":{"kind":"canal"},"geometry":{"type":"LineString","coordinates":[[104.9227638,12.5629815],[104.9224997,12.5629767]]}},{"type":"Feature","properties":{"kind":"canal"},"geometry":{"type":"LineString","coordinates":[[104.9224687,12.5628971],[104.9224997,12.5629767]]}},{"type":"Feature","properties":{"kind":"canal"},"geometry":{"type":"LineString","coordinates":[[104.9224687,12.5628971],[104.922392,12.562872]]}},{"type":"Feature","properties":{"kind":"canal"},"geometry":{"type":"LineString","coordinates":[[104.922392,12.562872],[104.9222944,12.5628925]]}},{"type":"Feature","properties":{"kind":"canal"},"geometry":{"type":"LineString","coordinates":[[104.9222944,12.5628925],[104.9221403,12.5629641]]}},{"type":"Feature","properties":{"kind":"canal"},"geometry":{"type":"LineString","coordinates":[[104.922074,12.5630032],[104.9221403,12.5629641]]}},{"type":"Feature","properties":{"kind":"canal"},"geometry":{"type":"LineString","coordinates":[[104.922074,12.5630032],[104.9216664,12.5630136]]}},{"type":"Feature","properties":{"kind":"canal"},"geometry":{"type":"LineString","coordinates":[[104.9238144,12.5621755],[104.9238621,12.5623501]]}},{"type":"Feature","properties":{"kind":"canal"},"geometry":{"type":"LineString","coordinates":[[104.9241061,12.5626896],[104.9238621,12.5623501]]}},{"type":"Feature","properties":{"kind":"canal"},"geometry":{"type":"LineString","coordinates":[[104.9243588,12.5630061],[104.9241034,12.5626901]]}},{"type":"Feature","properties":{"kind":"canal"},"geometry":{"type":"LineString","coordinates":[[104.9243588,12.5630061],[104.924795,12.563029]]}},{"type":"Feature","properties":{"kind":"canal"},"geometry":{"type":"LineString","coordinates":[[104.9248739,12.5625753],[104.924795,12.563029]]}},{"type":"Feature","properties":{"kind":"canal"},"geometry":{"type":"LineString","coordinates":[[104.9241034,12.5626901],[104.9248739,12.5625753]]}},{"type":"Feature","properties":{"kind":"canal"},"geometry":{"type":"LineString","coordinates":[[104.9242875,12.5622005],[104.9238144,12.5621755]]}},{"type":"Feature","properties":{"kind":"canal"},"geometry":{"type":"LineString","coordinates":[[104.9242875,12.5622005],[104.9248282,12.5621831]]}},{"type":"Feature","properties":{"kind":"canal"},"geometry":{"type":"LineString","coordinates":[[104.9248739,12.5625753],[104.9248282,12.5621831]]}},{"type":"Feature","properties":{"kind":"canal"},"geometry":{"type":"LineString","coordinates":[[104.9243726,12.56265],[104.9242875,12.5622005]]}},{"type":"Feature","properties":{"kind":"canal"},"geometry":{"type":"LineString","coordinates":[[104.924795,12.563029],[104.9248907,12.5631172]]}},{"type":"Feature","properties":{"kind":"canal"},"geometry":{"type":"LineString","coordinates":[[104.9248907,12.5631172],[104.9250279,12.5631798]]}},{"type":"Feature","properties":{"kind":"canal"},"geometry":{"type":"LineString","coordinates":[[104.9250279,12.5631798],[104.9252899,12.5631726]]}},{"type":"Feature","properties":{"kind":"canal"},"geometry":{"type":"LineString","coordinates":[[104.9252942,12.5621926],[104.9252899,12.5631726]]}},{"type":"Feature","properties":{"kind":"canal"},"geometry":{"type":"LineString","coordinates":[[104.9252942,12.5621926],[104.9248282,12.5621831]]}},{"type":"Feature","properties":{"kind":"canal"},"geometry":{"type":"LineString","coordinates":[[104.9211338,12.5639105],[104.921407,12.563853]]}},{"type":"Feature","properties":{"kind":"canal"},"geometry":{"type":"LineString","coordinates":[[104.921407,12.563775],[104.921407,12.563853]]}},{"type":"Feature","properties":{"kind":"canal"},"geometry":{"type":"LineString","coordinates":[[104.921407,12.563775],[104.92233,12.563816]]}},{"type":"Feature","properties":{"kind":"canal"},"geometry":{"type":"LineString","coordinates":[[104.9217431,12.5634926],[104.922343,12.563466]]}},{"type":"Feature","properties":{"kind":"canal"},"geometry":{"type":"LineString","coordinates":[[104.92233,12.563816],[104.922343,12.563466]]}},{"type":"Feature","properties":{"kind":"canal"},"geometry":{"type":"LineString","coordinates":[[104.92233,12.563816],[104.9227284,12.5638102]]}},{"type":"Feature","properties":{"kind":"canal"},"geometry":{"type":"LineString","coordinates":[[104.9227326,12.5634665],[104.9227284,12.5638102]]}},{"type":"Feature","properties":{"kind":"canal"},"geometry":{"type":"LineString","coordinates":[[104.922343,12.563466],[104.9227326,12.5634665]]}},{"type":"Feature","properties":{"kind":"canal"},"geometry":{"type":"LineString","coordinates":[[104.9227284,12.5638102],[104.9230864,12.5638243]]}},{"type":"Feature","properties":{"kind":"canal"},"geometry":{"type":"LineString","coordinates":[[104.923127,12.563467],[104.9227326,12.5634665]]}},{"type":"Feature","properties":{"kind":"canal"},"geometry":{"type":"LineString","coordinates":[[104.9230864,12.5638243],[104.923127,12.563467]]}},{"type":"Feature","properties":{"kind":"canal"},"geometry":{"type":"LineString","coordinates":[[104.9230864,12.5638243],[104.9235602,12.5638382]]}},{"type":"Feature","properties":{"kind":"canal"},"geometry":{"type":"LineString","coordinates":[[104.923127,12.563467],[104.9235862,12.5634854]]}},{"type":"Feature","properties":{"kind":"canal"},"geometry":{"type":"LineString","coordinates":[[104.9235602,12.5638382],[104.9235862,12.5634854]]}},{"type":"Feature","properties":{"kind":"canal"},"geometry":{"type":"LineString","coordinates":[[104.921407,12.563853],[104.921482,12.56408]]}},{"type":"Feature","properties":{"kind":"canal"},"geometry":{"type":"LineString","coordinates":[[104.921482,12.56408],[104.9223139,12.5641592]]}},{"type":"Feature","properties":{"kind":"canal"},"geometry":{"type":"LineString","coordinates":[[104.92233,12.563816],[104.9223139,12.5641592]]}},{"type":"Feature","properties":{"kind":"canal"},"geometry":{"type":"LineString","coordinates":[[104.921651,12.564861],[104.921482,12.56408]]}},{"type":"Feature","properties":{"kind":"canal"},"geometry":{"type":"LineString","coordinates":[[104.9223139,12.5641592],[104.922283,12.564815]]}},{"type":"Feature","properties":{"kind":"canal"},"geometry":{"type":"LineString","coordinates":[[104.9223139,12.5641592],[104.9227092,12.5641591]]}},{"type":"Feature","properties":{"kind":"canal"},"geometry":{"type":"LineString","coordinates":[[104.922671,12.56485],[104.9227092,12.5641591]]}},{"type":"Feature","properties":{"kind":"canal"},"geometry":{"type":"LineString","coordinates":[[104.9227284,12.5638102],[104.9227092,12.5641591]]}},{"type":"Feature","properties":{"kind":"canal"},"geometry":{"type":"LineString","coordinates":[[104.922969,12.564856],[104.9230449,12.5641886]]}},{"type":"Feature","properties":{"kind":"canal"},"geometry":{"type":"LineString","coordinates":[[104.9227092,12.5641591],[104.9230449,12.5641886]]}},{"type":"Feature","properties":{"kind":"canal"},"geometry":{"type":"LineString","coordinates":[[104.9230864,12.5638243],[104.9230449,12.5641886]]}},{"type":"Feature","properties":{"kind":"canal"},"geometry":{"type":"LineString","coordinates":[[104.922969,12.564856],[104.923462,12.56488]]}},{"type":"Feature","properties":{"kind":"canal"},"geometry":{"type":"LineString","coordinates":[[104.9230449,12.5641886],[104.9235195,12.5642129]]}},{"type":"Feature","properties":{"kind":"canal"},"geometry":{"type":"LineString","coordinates":[[104.9235258,12.5642129],[104.9235602,12.5638382]]}},{"type":"Feature","properties":{"kind":"canal"},"geometry":{"type":"LineString","coordinates":[[104.9239517,12.5645456],[104.9235602,12.5638382]]}},{"type":"Feature","properties":{"kind":"canal"},"geometry":{"type":"LineString","coordinates":[[104.923462,12.56488],[104.923639,12.56493]]}},{"type":"Feature","properties":{"kind":"canal"},"geometry":{"type":"LineString","coordinates":[[104.923707,12.565416],[104.923639,12.56493]]}},{"type":"Feature","properties":{"kind":"canal"},"geometry":{"type":"LineString","coordinates":[[104.923707,12.565416],[104.9239011,12.565427]]}},{"type":"Feature","properties":{"kind":"canal"},"geometry":{"type":"LineString","coordinates":[[104.9239517,12.5645456],[104.9239011,12.565427]]}},{"type":"Feature","properties":{"kind":"canal"},"geometry":{"type":"LineString","coordinates":[[104.9239517,12.5645456],[104.9241852,12.5646674]]}},{"type":"Feature","properties":{"kind":"canal"},"geometry":{"type":"LineString","coordinates":[[104.9243351,12.5648266],[104.9241852,12.5646674]]}},{"type":"Feature","properties":{"kind":"canal"},"geometry":{"type":"LineString","coordinates":[[104.9243351,12.5648266],[104.9245629,12.5648082]]}},{"type":"Feature","properties":{"kind":"canal"},"geometry":{"type":"LineString","coordinates":[[104.9248037,12.5646928],[104.9245629,12.5648082]]}},{"type":"Feature","properties":{"kind":"canal"},"geometry":{"type":"LineString","coordinates":[[104.9248037,12.5646928],[104.9249596,12.5648347]]}},{"type":"Feature","properties":{"kind":"canal"},"geometry":{"type":"LineString","coordinates":[[104.9249596,12.5648347],[104.9251879,12.5649142]]}},{"type":"Feature","properties":{"kind":"canal"},"geometry":{"type":"LineString","coordinates":[[104.9251879,12.5649142],[104.9252358,12.5649717]]}},{"type":"Feature","properties":{"kind":"canal"},"geometry":{"type":"LineString","coordinates":[[104.9252358,12.5649717],[104.924839,12.5656802]]}},{"type":"Feature","properties":{"kind":"canal"},"geometry":{"type":"LineString","coordinates":[[104.924839,12.5656802],[104.9247086,12.565824]]}},{"type":"Feature","properties":{"kind":"canal"},"geometry":{"type":"LineString","coordinates":[[104.9245334,12.5658654],[104.9247086,12.565824]]}},{"type":"Feature","properties":{"kind":"canal"},"geometry":{"type":"LineString","coordinates":[[104.9245704,12.5662159],[104.9245334,12.5658654]]}},{"type":"Feature","properties":{"kind":"canal"},"geometry":{"type":"LineString","coordinates":[[104.9245704,12.5662159],[104.9245241,12.5664287]]}},{"type":"Feature","properties":{"kind":"canal"},"geometry":{"type":"LineString","coordinates":[[104.9245241,12.5664287],[104.9245025,12.5665055]]}},{"type":"Feature","properties":{"kind":"canal"},"geometry":{"type":"LineString","coordinates":[[104.9245025,12.5665055],[104.92445,12.5665946]]}},{"type":"Feature","properties":{"kind":"canal"},"geometry":{"type":"LineString","coordinates":[[104.92445,12.5665946],[104.92442,12.566566]]}},{"type":"Feature","properties":{"kind":"canal"},"geometry":{"type":"LineString","coordinates":[[104.92442,12.566566],[104.924378,12.5664985]]}},{"type":"Feature","properties":{"kind":"canal"},"geometry":{"type":"LineString","coordinates":[[104.924378,12.5664985],[104.9243529,12.5658974]]}},{"type":"Feature","properties":{"kind":"canal"},"geometry":{"type":"LineString","coordinates":[[104.9243643,12.5657408],[104.9243529,12.5658974]]}},{"type":"Feature","properties":{"kind":"canal"},"geometry":{"type":"LineString","coordinates":[[104.9242832,12.5655711],[104.9243643,12.5657408]]}},{"type":"Feature","properties":{"kind":"canal"},"geometry":{"type":"LineString","coordinates":[[104.9242832,12.5655711],[104.9241625,12.565513]]}},{"type":"Feature","properties":{"kind":"canal"},"geometry":{"type":"LineString","coordinates":[[104.9239011,12.565427],[104.9241625,12.565513]]}},{"type":"Feature","properties":{"kind":"canal"},"geometry":{"type":"LineString","coordinates":[[104.9235258,12.5642129],[104.923462,12.56488]]}},{"type":"Feature","properties":{"kind":"canal"},"geometry":{"type":"LineString","coordinates":[[104.9235195,12.5642129],[104.9235258,12.5642129]]}},{"type":"Feature","properties":{"kind":"canal"},"geometry":{"type":"LineString","coordinates":[[104.920986,12.533322],[104.920882,12.53477]]}},{"type":"Feature","properties":{"kind":"canal"},"geometry":{"type":"LineString","coordinates":[[104.920986,12.533322],[104.920204,12.533269]]}},{"type":"Feature","properties":{"kind":"canal"},"geometry":{"type":"LineString","coordinates":[[104.920204,12.533269],[104.920179,12.534084]]}},{"type":"Feature","properties":{"kind":"canal"},"geometry":{"type":"LineString","coordinates":[[104.920179,12.534084],[104.920161,12.534379]]}},{"type":"Feature","properties":{"kind":"canal"},"geometry":{"type":"LineString","coordinates":[[104.920161,12.534379],[104.920091,12.534479]]}},{"type":"Feature","properties":{"kind":"canal"},"geometry":{"type":"LineString","coordinates":[[104.920091,12.534479],[104.920054,12.534559]]}},{"type":"Feature","properties":{"kind":"canal"},"geometry":{"type":"LineString","coordinates":[[104.920054,12.534559],[104.92006,12.534786]]}},{"type":"Feature","properties":{"kind":"canal"},"geometry":{"type":"LineString","coordinates":[[104.92006,12.534786],[104.920882,12.53477]]}},{"type":"Feature","properties":{"kind":"canal"},"geometry":{"type":"LineString","coordinates":[[104.920882,12.53477],[104.921582,12.534791]]}},{"type":"Feature","properties":{"kind":"canal"},"geometry":{"type":"LineString","coordinates":[[104.921557,12.535051],[104.921582,12.534791]]}},{"type":"Feature","properties":{"kind":"canal"},"geometry":{"type":"LineString","coordinates":[[104.921557,12.535051],[104.921077,12.535072]]}},{"type":"Feature","properties":{"kind":"canal"},"geometry":{"type":"LineString","coordinates":[[104.921077,12.535072],[104.921052,12.535474]]}},{"type":"Feature","properties":{"kind":"canal"},"geometry":{"type":"LineString","coordinates":[[104.920897,12.535595],[104.921052,12.535474]]}},{"type":"Feature","properties":{"kind":"canal"},"geometry":{"type":"LineString","coordinates":[[104.920897,12.535595],[104.920622,12.53549]]}},{"type":"Feature","properties":{"kind":"canal"},"geometry":{"type":"LineString","coordinates":[[104.920622,12.53549],[104.920479,12.535428]]}},{"type":"Feature","properties":{"kind":"canal"},"geometry":{"type":"LineString","coordinates":[[104.920387,12.53541],[104.920479,12.535428]]}},{"type":"Feature","properties":{"kind":"canal"},"geometry":{"type":"LineString","coordinates":[[104.920161,12.535411],[104.920387,12.53541]]}},{"type":"Feature","properties":{"kind":"canal"},"geometry":{"type":"LineString","coordinates":[[104.920161,12.535411],[104.920169,12.535876]]}},{"type":"Feature","properties":{"kind":"canal"},"geometry":{"type":"LineString","coordinates":[[104.920169,12.535876],[104.919878,12.536128]]}},{"type":"Feature","properties":{"kind":"canal"},"geometry":{"type":"LineString","coordinates":[[104.91987,12.536248],[104.919878,12.536128]]}},{"type":"Feature","properties":{"kind":"canal"},"geometry":{"type":"LineString","coordinates":[[104.91987,12.536248],[104.919536,12.536508]]}},{"type":"Feature","properties":{"kind":"canal"},"geometry":{"type":"LineString","coordinates":[[104.919387,12.534416],[104.919536,12.536508]]}},{"type":"Feature","properties":{"kind":"canal"},"geometry":{"type":"LineString","coordinates":[[104.919387,12.534416],[104.919677,12.534407]]}},{"type":"Feature","properties":{"kind":"canal"},"geometry":{"type":"LineString","coordinates":[[104.91983,12.534319],[104.919804,12.534348]]}},{"type":"Feature","properties":{"kind":"canal"},"geometry":{"type":"LineString","coordinates":[[104.919677,12.534407],[104.919804,12.534348]]}},{"type":"Feature","properties":{"kind":"canal"},"geometry":{"type":"LineString","coordinates":[[104.919855,12.533984],[104.91983,12.534319]]}},{"type":"Feature","properties":{"kind":"canal"},"geometry":{"type":"LineString","coordinates":[[104.919855,12.533984],[104.920063,12.533993]]}},{"type":"Feature","properties":{"kind":"canal"},"geometry":{"type":"LineString","coordinates":[[104.920063,12.533993],[104.920052,12.534052]]}},{"type":"Feature","properties":{"kind":"canal"},"geometry":{"type":"LineString","coordinates":[[104.920052,12.534052],[104.920066,12.534075]]}},{"type":"Feature","properties":{"kind":"canal"},"geometry":{"type":"LineString","coordinates":[[104.920179,12.534084],[104.920066,12.534075]]}},{"type":"Feature","properties":{"kind":"canal"},"geometry":{"type":"LineString","coordinates":[[104.920917,12.535631],[104.921224,12.535737]]}},{"type":"Feature","properties":{"kind":"canal"},"geometry":{"type":"LineString","coordinates":[[104.921214,12.536133],[104.921224,12.535737]]}},{"type":"Feature","properties":{"kind":"canal"},"geometry":{"type":"LineString","coordinates":[[104.921214,12.536133],[104.921119,12.536174]]}},{"type":"Feature","properties":{"kind":"canal"},"geometry":{"type":"LineString","coordinates":[[104.921119,12.536174],[104.920958,12.536222]]}},{"type":"Feature","properties":{"kind":"canal"},"geometry":{"type":"LineString","coordinates":[[104.920993,12.536321],[104.920958,12.536222]]}},{"type":"Feature","properties":{"kind":"canal"},"geometry":{"type":"LineString","coordinates":[[104.920993,12.536321],[104.920844,12.536353]]}},{"type":"Feature","properties":{"kind":"canal"},"geometry":{"type":"LineString","coordinates":[[104.920838,12.536615],[104.920844,12.536353]]}},{"type":"Feature","properties":{"kind":"canal"},"geometry":{"type":"LineString","coordinates":[[104.920838,12.536615],[104.921186,12.536639]]}},{"type":"Feature","properties":{"kind":"canal"},"geometry":{"type":"LineString","coordinates":[[104.921209,12.536289],[104.921186,12.536639]]}},{"type":"Feature","properties":{"kind":"canal"},"geometry":{"type":"LineString","coordinates":[[104.921209,12.536289],[104.921529,12.536322]]}},{"type":"Feature","properties":{"kind":"canal"},"geometry":{"type":"LineString","coordinates":[[104.921551,12.536087],[104.921529,12.536322]]}},{"type":"Feature","properties":{"kind":"canal"},"geometry":{"type":"LineString","coordinates":[[104.921551,12.536087],[104.921881,12.536153]]}},{"type":"Feature","properties":{"kind":"canal"},"geometry":{"type":"LineString","coordinates":[[104.921853,12.536385],[104.921881,12.536153]]}},{"type":"Feature","properties":{"kind":"canal"},"geometry":{"type":"LineString","coordinates":[[104.921853,12.536385],[104.922565,12.536524]]}},{"type":"Feature","properties":{"kind":"canal"},"geometry":{"type":"LineString","coordinates":[[104.922565,12.536524],[104.922496,12.537035]]}},{"type":"Feature","properties":{"kind":"canal"},"geometry":{"type":"LineString","coordinates":[[104.922496,12.537035],[104.922229,12.53743]]}},{"type":"Feature","properties":{"kind":"canal"},"geometry":{"type":"LineString","coordinates":[[104.922229,12.53743],[104.921773,12.537976]]}},{"type":"Feature","properties":{"kind":"canal"},"geometry":{"type":"LineString","coordinates":[[104.921773,12.537976],[104.921539,12.538105]]}},{"type":"Feature","properties":{"kind":"canal"},"geometry":{"type":"LineString","coordinates":[[104.921539,12.538105],[104.921391,12.538258]]}},{"type":"Feature","properties":{"kind":"canal"},"geometry":{"type":"LineString","coordinates":[[104.921391,12.538258],[104.921289,12.538389]]}},{"type":"Feature","properties":{"kind":"canal"},"geometry":{"type":"LineString","coordinates":[[104.921289,12.538389],[104.9211,12.538618]]}},{"type":"Feature","properties":{"kind":"canal"},"geometry":{"type":"LineString","coordinates":[[104.9211,12.538618],[104.920939,12.538688]]}},{"type":"Feature","properties":{"kind":"canal"},"geometry":{"type":"LineString","coordinates":[[104.920939,12.538688],[104.92082,12.538697]]}},{"type":"Feature","properties":{"kind":"canal"},"geometry":{"type":"LineString","coordinates":[[104.92082,12.538697],[104.920343,12.538687]]}},{"type":"Feature","properties":{"kind":"canal"},"geometry":{"type":"LineString","coordinates":[[104.920505,12.537815],[104.920343,12.538687]]}},{"type":"Feature","properties":{"kind":"canal"},"geometry":{"type":"LineString","coordinates":[[104.920505,12.537815],[104.919746,12.537293]]}},{"type":"Feature","properties":{"kind":"canal"},"geometry":{"type":"LineString","coordinates":[[104.91979,12.537209],[104.919746,12.537293]]}},{"type":"Feature","properties":{"kind":"canal"},"geometry":{"type":"LineString","coordinates":[[104.920505,12.537815],[104.920722,12.537363]]}},{"type":"Feature","properties":{"kind":"canal"},"geometry":{"type":"LineString","coordinates":[[104.921186,12.536639],[104.920722,12.537363]]}},{"type":"Feature","properties":{"kind":"canal"},"geometry":{"type":"LineString","coordinates":[[104.920958,12.536222],[104.920931,12.536149]]}},{"type":"Feature","properties":{"kind":"canal"},"geometry":{"type":"LineString","coordinates":[[104.920931,12.536149],[104.92035,12.536199]]}},{"type":"Feature","properties":{"kind":"canal"},"geometry":{"type":"LineString","coordinates":[[104.920374,12.536391],[104.92035,12.536199]]}},{"type":"Feature","properties":{"kind":"canal"},"geometry":{"type":"LineString","coordinates":[[104.920374,12.536391],[104.92026,12.536388]]}},{"type":"Feature","properties":{"kind":"canal"},"geometry":{"type":"LineString","coordinates":[[104.92026,12.536388],[104.920265,12.536481]]}},{"type":"Feature","properties":{"kind":"canal"},"geometry":{"type":"LineString","coordinates":[[104.920265,12.536481],[104.919944,12.536501]]}},{"type":"Feature","properties":{"kind":"canal"},"geometry":{"type":"LineString","coordinates":[[104.919837,12.536335],[104.919944,12.536501]]}},{"type":"Feature","properties":{"kind":"canal"},"geometry":{"type":"LineString","coordinates":[[104.919837,12.536335],[104.919581,12.536551],[104.919559,12.536559]]}},{"type":"Feature","properties":{"kind":"canal"},"geometry":{"type":"LineString","coordinates":[[104.91963,12.537096],[104.919559,12.536559]]}},{"type":"Feature","properties":{"kind":"canal"},"geometry":{"type":"LineString","coordinates":[[104.91963,12.537096],[104.91979,12.537209]]}},{"type":"Feature","properties":{"kind":"canal"},"geometry":{"type":"LineString","coordinates":[[104.921551,12.536087],[104.921536,12.53546]]}},{"type":"Feature","properties":{"kind":"canal"},"geometry":{"type":"LineString","coordinates":[[104.921536,12.53546],[104.92136,12.535522]]}},{"type":"Feature","properties":{"kind":"canal"},"geometry":{"type":"LineString","coordinates":[[104.921036,12.535504],[104.92136,12.535522]]}},{"type":"Feature","properties":{"kind":"canal"},"geometry":{"type":"LineString","coordinates":[[104.920917,12.535631],[104.920921,12.535604]]}},{"type":"Feature","properties":{"kind":"canal"},"geometry":{"type":"LineString","coordinates":[[104.920921,12.535604],[104.921036,12.535504]]}},{"type":"Feature","properties":{"kind":"canal"},"geometry":{"type":"LineString","coordinates":[[104.9097791,12.5350241],[104.9097526,12.5351438],[104.9091757,12.5373556],[104.9090215,12.5379824],[104.9088835,12.5385042],[104.9087697,12.5388762],[104.908572,12.539544],[104.9084689,12.5398542]]}},{"type":"Feature","properties":{"kind":"canal"},"geometry":{"type":"LineString","coordinates":[[104.9084689,12.5398542],[104.9083198,12.5398031],[104.9081311,12.539747]]}},{"type":"Feature","properties":{"kind":"canal"},"geometry":{"type":"LineString","coordinates":[[104.9081311,12.539747],[104.9080467,12.5400816],[104.9079678,12.5406348],[104.9079194,12.5409917]]}},{"type":"Feature","properties":{"kind":"canal"},"geometry":{"type":"LineString","coordinates":[[104.9079194,12.5409917],[104.9081128,12.5411011],[104.9082019,12.5411492],[104.9082594,12.5412031],[104.9083124,12.5412676],[104.9083658,12.541338],[104.9085399,12.5415231],[104.909025,12.5419313],[104.9091987,12.5420318],[104.9093008,12.5421351],[104.9095159,12.5422411],[104.9098116,12.5423493],[104.9101662,12.5424121]]}},{"type":"Feature","properties":{"kind":"canal"},"geometry":{"type":"LineString","coordinates":[[104.9101662,12.5424121],[104.9109353,12.5396881]]}},{"type":"Feature","properties":{"kind":"canal"},"geometry":{"type":"LineString","coordinates":[[104.9109353,12.5396881],[104.9122634,12.5402321]]}},{"type":"Feature","properties":{"kind":"canal"},"geometry":{"type":"LineString","coordinates":[[104.9128004,12.5393813],[104.9125448,12.5397974],[104.9122634,12.5402321]]}},{"type":"Feature","properties":{"kind":"canal"},"geometry":{"type":"LineString","coordinates":[[104.9128393,12.5393387],[104.9128004,12.5393813]]}},{"type":"Feature","properties":{"kind":"canal"},"geometry":{"type":"LineString","coordinates":[[104.9128393,12.5393387],[104.9129072,12.5393971],[104.9138975,12.5399169],[104.9147544,12.5403639],[104.9148727,12.5404049]]}},{"type":"Feature","properties":{"kind":"canal"},"geometry":{"type":"LineString","coordinates":[[104.9148727,12.5404049],[104.9152611,12.5390156],[104.9161137,12.5377611]]}},{"type":"Feature","properties":{"kind":"canal"},"geometry":{"type":"LineString","coordinates":[[104.9161137,12.5377611],[104.9142136,12.5375268],[104.9125819,12.5373291]]}},{"type":"Feature","properties":{"kind":"canal"},"geometry":{"type":"LineString","coordinates":[[104.9125819,12.5373291],[104.9125089,12.5371102],[104.9123391,12.5369821],[104.9120263,12.5366736],[104.911738,12.5364964],[104.9115,12.5363895],[104.9113793,12.5362843],[104.9112526,12.5361974],[104.9110148,12.5360305],[104.9108007,12.5358706],[104.9105934,12.5357009],[104.9103426,12.5355387],[104.9103372,12.5355352]]}},{"type":"Feature","properties":{"kind":"canal"},"geometry":{"type":"LineString","coordinates":[[104.9103449,12.535531],[104.9103426,12.5355387],[104.910344,12.5355396]]}},{"type":"Feature","properties":{"kind":"canal"},"geometry":{"type":"LineString","coordinates":[[104.9103449,12.535531],[104.9102859,12.5354782],[104.9100776,12.5352916],[104.9097791,12.5350241]]}},{"type":"Feature","properties":{"kind":"canal"},"geometry":{"type":"LineString","coordinates":[[104.8855516,12.5819791],[104.8868442,12.5820455]]}},{"type":"Feature","properties":{"kind":"canal"},"geometry":{"type":"LineString","coordinates":[[104.886869,12.5812297],[104.8868442,12.5820455]]}},{"type":"Feature","properties":{"kind":"canal"},"geometry":{"type":"LineString","coordinates":[[104.8855516,12.5819791],[104.8855759,12.5812051]]}},{"type":"Feature","properties":{"kind":"canal"},"geometry":{"type":"LineString","coordinates":[[104.886869,12.5812297],[104.8855759,12.5812051]]}},{"type":"Feature","properties":{"kind":"canal"},"geometry":{"type":"LineString","coordinates":[[104.877391,12.595484],[104.879165,12.59568]]}},{"type":"Feature","properties":{"kind":"canal"},"geometry":{"type":"LineString","coordinates":[[104.879379,12.593468],[104.879165,12.59568]]}},{"type":"Feature","properties":{"kind":"canal"},"geometry":{"type":"LineString","coordinates":[[104.877191,12.593339],[104.879379,12.593468]]}},{"type":"Feature","properties":{"kind":"canal"},"geometry":{"type":"LineString","coordinates":[[104.877391,12.595484],[104.877233,12.594423]]}},{"type":"Feature","properties":{"kind":"canal"},"geometry":{"type":"LineString","coordinates":[[104.877191,12.593339],[104.877233,12.594423]]}},{"type":"Feature","properties":{"kind":"canal"},"geometry":{"type":"LineString","coordinates":[[104.887149,12.587463],[104.887845,12.58745]]}},{"type":"Feature","properties":{"kind":"canal"},"geometry":{"type":"LineString","coordinates":[[104.887754,12.586048],[104.887845,12.58745]]}},{"type":"Feature","properties":{"kind":"canal"},"geometry":{"type":"LineString","coordinates":[[104.887754,12.586048],[104.887156,12.586103]]}},{"type":"Feature","properties":{"kind":"canal"},"geometry":{"type":"LineString","coordinates":[[104.887149,12.587463],[104.887156,12.586103]]}},{"type":"Feature","properties":{"kind":"canal"},"geometry":{"type":"LineString","coordinates":[[104.888135,12.589582],[104.888133,12.590025]]}},{"type":"Feature","properties":{"kind":"canal"},"geometry":{"type":"LineString","coordinates":[[104.887184,12.590059],[104.888133,12.590025]]}},{"type":"Feature","properties":{"kind":"canal"},"geometry":{"type":"LineString","coordinates":[[104.888135,12.589582],[104.887132,12.589573]]}},{"type":"Feature","properties":{"kind":"canal"},"geometry":{"type":"LineString","coordinates":[[104.887184,12.590059],[104.887132,12.589573]]}},{"type":"Feature","properties":{"kind":"canal"},"geometry":{"type":"LineString","coordinates":[[104.87963,12.611937],[104.879888,12.611944]]}},{"type":"Feature","properties":{"kind":"canal"},"geometry":{"type":"LineString","coordinates":[[104.879699,12.613695],[104.879888,12.611944]]}},{"type":"Feature","properties":{"kind":"canal"},"geometry":{"type":"LineString","coordinates":[[104.879699,12.613695],[104.882301,12.615457],[104.8821987,12.6108678],[104.8821656,12.6093832],[104.882103,12.606578],[104.882365,12.605935],[104.8799155,12.6056674],[104.8799113,12.6050992],[104.879491,12.60518],[104.8795486,12.6067839],[104.879595,12.608078],[104.879608,12.609403],[104.8796299,12.6119253]]}},{"type":"Feature","properties":{"kind":"canal"},"geometry":{"type":"LineString","coordinates":[[104.878018,12.605538],[104.879491,12.60518],[104.8799113,12.6050992],[104.880199,12.605024],[104.879414,12.600407],[104.879264,12.598374],[104.8819481,12.5988201],[104.882027,12.598917],[104.882749,12.598985],[104.883417,12.599298],[104.883456,12.601103],[104.890196,12.601785],[104.890278,12.600671],[104.889292,12.600517],[104.889353,12.600112],[104.88755,12.599798],[104.887561,12.599922],[104.885064,12.600396],[104.88493,12.599686],[104.886781,12.599074],[104.887355,12.599058],[104.8883134,12.5988091],[104.888303,12.598759],[104.888974,12.598784],[104.8890376,12.5978139],[104.8893735,12.5978839],[104.8894947,12.5970171],[104.890366,12.597111],[104.89042,12.596689],[104.8904685,12.596387],[104.8921433,12.5966444],[104.892207,12.596275],[104.8913459,12.5961327],[104.8914117,12.595748],[104.892246,12.595881],[104.892317,12.59548],[104.890873,12.595258],[104.89113,12.59359],[104.891165,12.593607],[104.8912462,12.593218],[104.8948121,12.5935145],[104.8948583,12.5931528],[104.891306,12.5929286],[104.891375,12.592595],[104.891393,12.591446],[104.891486,12.5901196],[104.8923367,12.5901274],[104.8923307,12.5904802],[104.8928401,12.5904776],[104.8928363,12.5901111],[104.8939625,12.5900776],[104.8939337,12.5896352],[104.8915028,12.5897177],[104.891488,12.589478],[104.891397,12.587843],[104.889349,12.587994],[104.88944,12.589087],[104.890843,12.589115],[104.890829,12.589457],[104.891146,12.589482],[104.891052,12.590364],[104.889183,12.590343],[104.889225,12.590922],[104.8899001,12.5909476],[104.889896,12.591439],[104.889232,12.591348],[104.88926,12.591005],[104.888299,12.59102],[104.8881776,12.5921871],[104.886512,12.591909],[104.886405,12.59334],[104.888031,12.593556],[104.887824,12.594051],[104.887687,12.59509],[104.887225,12.594997],[104.887299,12.594668],[104.886459,12.594506],[104.886354,12.596064],[104.8868392,12.5961332],[104.8868031,12.5975691],[104.885846,12.597675],[104.88406,12.597502],[104.884097,12.595925],[104.885131,12.596024],[104.885094,12.596781],[104.886016,12.596906],[104.885957,12.595986],[104.8856632,12.5959549],[104.885843,12.594402],[104.885218,12.594243],[104.8851501,12.5947783],[104.884015,12.594566],[104.883983,12.595116],[104.883101,12.595035],[104.883103,12.593828],[104.88222,12.593728],[104.882048,12.595776],[104.881523,12.595715],[104.881505,12.59655],[104.881021,12.596535],[104.880886,12.597801],[104.878462,12.597369],[104.878115,12.598517],[104.8768153,12.5986702]]}},{"type":"Feature","properties":{"kind":"canal"},"geometry":{"type":"LineString","coordinates":[[104.8768153,12.5986702],[104.873272,12.599088],[104.878018,12.605538]]}},{"type":"Feature","properties":{"kind":"canal"},"geometry":{"type":"LineString","coordinates":[[104.8761337,12.6119028],[104.8771416,12.6126057],[104.877153,12.614656],[104.878392,12.614738],[104.8789874,12.614627],[104.8790057,12.615588],[104.878362,12.6156031],[104.87837,12.617998],[104.877122,12.618195],[104.877128,12.617777],[104.876212,12.617766],[104.876166,12.616422],[104.875065,12.616427],[104.875074,12.616105],[104.8755912,12.6161079],[104.8753077,12.6154826],[104.8750413,12.6154865],[104.875009,12.613806],[104.876127,12.613812],[104.8761337,12.6119028],[104.8762002,12.6119492]]}},{"type":"Feature","properties":{"kind":"canal"},"geometry":{"type":"LineString","coordinates":[[104.896164,12.588561],[104.896213,12.589126],[104.8960585,12.5890961],[104.8960309,12.589067],[104.8958735,12.5890604],[104.89552,12.588992],[104.895028,12.588589],[104.896164,12.588561]]}},{"type":"Feature","properties":{"kind":"canal"},"geometry":{"type":"LineString","coordinates":[[104.8954523,12.589182],[104.895131,12.589221],[104.8950781,12.5886654],[104.895077,12.588654],[104.8951039,12.5886919],[104.8954523,12.589182]]}},{"type":"Feature","properties":{"kind":"canal"},"geometry":{"type":"LineString","coordinates":[[104.8838531,12.5846758],[104.8838018,12.5859079],[104.8842215,12.5859249],[104.8842195,12.5860287],[104.8849802,12.5860861],[104.8850134,12.5847832],[104.886326,12.5848615],[104.8863691,12.5839108],[104.886918,12.5838966],[104.8868774,12.5827415],[104.8851143,12.5827653],[104.8850197,12.5847778],[104.8838531,12.5846758]]}},{"type":"Feature","properties":{"kind":"canal"},"geometry":{"type":"LineString","coordinates":[[104.8855516,12.5819791],[104.8868442,12.5820455],[104.8868711,12.5812307],[104.886869,12.5812297],[104.8855759,12.5812051],[104.8855516,12.5819791]]}}]}
