{"type":"FeatureCollection","features":[{"type":"Feature","properties":{"name":"BRM Agro estate","surveyed":"2024-04-07","area_ha":1272.632,"centroid":[12.559134,104.914716]},"geometry":{"type":"Polygon","coordinates":[[[104.8947682,12.5872967],[104.8947396,12.5867599],[104.8952582,12.586695],[104.8951641,12.5848854],[104.8951802,12.5843749],[104.8943879,12.5844602],[104.8924317,12.5846869],[104.8925752,12.5851382],[104.8927965,12.5856069],[104.8930999,12.5856232],[104.8934374,12.5868176],[104.8934942,12.5868584],[104.893631,12.5874926],[104.8919049,12.5877842],[104.8913198,12.5878828],[104.8902368,12.5879748],[104.8901721,12.5872719],[104.8901228,12.5869419],[104.8885549,12.587052],[104.8883846,12.5858414],[104.889558,12.5857387],[104.8891231,12.5835029],[104.8879315,12.5833994],[104.8878179,12.582026],[104.886276,12.5802632],[104.8873665,12.5803497],[104.8887099,12.58165],[104.8886153,12.5808979],[104.8900595,12.580704],[104.8898776,12.5790224],[104.8896751,12.5790609],[104.8895471,12.5780558],[104.8895037,12.5770373],[104.8885729,12.5770386],[104.8885699,12.5779889],[104.8885685,12.5785479],[104.8887539,12.5796534],[104.8876987,12.5795286],[104.8878886,12.5770102],[104.8870899,12.5769727],[104.8870632,12.5766282],[104.8870286,12.5739365],[104.8888279,12.5742333],[104.8889283,12.571551],[104.8892773,12.56223],[104.8911429,12.5623317],[104.8913422,12.5606756],[104.888634,12.5605185],[104.8885879,12.5588986],[104.8885493,12.5575438],[104.8885289,12.556574],[104.8896478,12.5565486],[104.8906276,12.5565295],[104.8909893,12.5565776],[104.8923384,12.5565888],[104.8934023,12.5566295],[104.8936479,12.5566356],[104.8966887,12.5565931],[104.8978297,12.5565973],[104.9000569,12.5566688],[104.9008188,12.5567252],[104.9013633,12.556796],[104.9020933,12.5568689],[104.9023485,12.5569073],[104.904577,12.5571699],[104.905782,12.5572726],[104.9077843,12.5574825],[104.9100086,12.5576882],[104.9101,12.5577172],[104.9115978,12.5578686],[104.911191,12.5554103],[104.9110387,12.5527861],[104.9122194,12.5533501],[104.913127,12.553757],[104.913568,12.5539984],[104.9134294,12.5564884],[104.915779,12.5562448],[104.9158642,12.5551761],[104.9165409,12.5542224],[104.9164331,12.5533784],[104.9164121,12.5528707],[104.9195053,12.552823],[104.9198255,12.5517203],[104.9201065,12.5505306],[104.9201537,12.5502719],[104.9202293,12.5499677],[104.9203096,12.5496301],[104.9203221,12.5495625],[104.9203407,12.5494617],[104.92033,12.5492376],[104.9203161,12.5490602],[104.9203048,12.5489674],[104.9203086,12.5487089],[104.9202119,12.5485669],[104.9201116,12.5485069],[104.9199446,12.548553],[104.9197209,12.5486939],[104.919467,12.548858],[104.9192446,12.5491092],[104.9190422,12.5493002],[104.9188709,12.5493671],[104.9182641,12.5496161],[104.9170688,12.5501829],[104.9169412,12.5502234],[104.9168055,12.5502989],[104.9166964,12.5504118],[104.9166121,12.550546],[104.9164836,12.5506106],[104.9162804,12.5505913],[104.9161636,12.5505644],[104.9161144,12.5505302],[104.9160503,12.5505341],[104.9159278,12.5505589],[104.9157924,12.5505773],[104.9155868,12.5505686],[104.915375,12.5505221],[104.9151722,12.5503859],[104.9149156,12.5501365],[104.9145892,12.5498851],[104.9145056,12.5498299],[104.9143333,12.5497726],[104.9141431,12.5496807],[104.9139654,12.5496136],[104.9138168,12.5495645],[104.9136366,12.5495431],[104.9133451,12.5495532],[104.9130441,12.5494966],[104.9128882,12.5494507],[104.9126963,12.5493356],[104.9125038,12.5492226],[104.9124073,12.5492217],[104.9123007,12.5491783],[104.9120517,12.5490857],[104.9118993,12.5490434],[104.911776,12.5489982],[104.9116518,12.548991],[104.9114669,12.5489189],[104.9113504,12.5488748],[104.9113251,12.5488513],[104.9105786,12.5494409],[104.9101486,12.54922],[104.9094375,12.5490069],[104.9094556,12.5482606],[104.90943,12.5475502],[104.9096477,12.546582],[104.9097063,12.5457094],[104.9098203,12.5448881],[104.9099098,12.5446425],[104.9105824,12.5447153],[104.9112447,12.5444016],[104.9117554,12.5442352],[104.9123938,12.5436507],[104.9129888,12.5433975],[104.9137165,12.5430951],[104.9140955,12.5428652],[104.9141505,12.5427203],[104.9144434,12.5426636],[104.9148012,12.5425493],[104.9150998,12.5424286],[104.915117,12.5424285],[104.9153554,12.5422805],[104.9157552,12.5419445],[104.9158307,12.54206],[104.9160611,12.5415297],[104.916154,12.541351],[104.9160331,12.540976],[104.9159416,12.540594],[104.9159091,12.540285],[104.9159008,12.5398014],[104.9159741,12.5394058],[104.9160957,12.5391168],[104.9163131,12.5387293],[104.9164416,12.5385511],[104.9167085,12.5382634],[104.9171849,12.5380369],[104.9176478,12.537848],[104.9179662,12.5376907],[104.9182987,12.5376441],[104.9187523,12.5376979],[104.9189783,12.5380124],[104.9191379,12.5386455],[104.9193671,12.5392034],[104.9195218,12.5393541],[104.919987,12.5394754],[104.9202991,12.5395494],[104.9206436,12.5395736],[104.9209744,12.5395339],[104.9211922,12.5394569],[104.9217575,12.5390471],[104.9223338,12.5385386],[104.9226574,12.5382503],[104.9231705,12.5377374],[104.9234597,12.5373753],[104.9235048,12.5372654],[104.9235719,12.5371702],[104.9237176,12.5371102],[104.9254785,12.5369716],[104.9257164,12.5369718],[104.9258667,12.5370428],[104.9259477,12.5371201],[104.9259496,12.5372282],[104.9258811,12.5374054],[104.9256909,12.5380585],[104.9254949,12.5387402],[104.9254034,12.5395104],[104.9252975,12.5407179],[104.9256448,12.5413526],[104.9260564,12.542016],[104.926508,12.5425857],[104.9266199,12.5426886],[104.9275336,12.5431484],[104.9277402,12.5432735],[104.9279046,12.5434213],[104.9280286,12.5435541],[104.9281084,12.543618],[104.9282151,12.5436379],[104.928342,12.5436418],[104.9284016,12.5436289],[104.9284514,12.5436257],[104.928579,12.5436],[104.9287367,12.5436419],[104.9288913,12.5437237],[104.9290304,12.5438007],[104.9291594,12.5438273],[104.9293464,12.5437797],[104.9295156,12.5436762],[104.9300506,12.5435727],[104.9306308,12.5436115],[104.9306352,12.5436118],[104.9310572,12.5436367],[104.9312199,12.5436415],[104.9313933,12.5436262],[104.9316047,12.5435885],[104.9317851,12.5435446],[104.9319256,12.5434924],[104.9321643,12.543428],[104.9323535,12.5433991],[104.9328346,12.5433976],[104.9333462,12.5434055],[104.933549,12.5433979],[104.9336839,12.5433865],[104.9338452,12.5433262],[104.9340327,12.543223],[104.9341725,12.5431475],[104.9342962,12.543077],[104.9345767,12.54294],[104.9348492,12.5427854],[104.9352588,12.5426354],[104.9356126,12.542537],[104.9360839,12.542335],[104.9364178,12.5421336],[104.9367675,12.5419515],[104.9370286,12.5419399],[104.9372483,12.5419566],[104.9375769,12.5419671],[104.9378872,12.5420119],[104.9384013,12.542147],[104.9389913,12.5423211],[104.9392039,12.5424059],[104.9393918,12.5424827],[104.9395298,12.5425235],[104.9396545,12.5425375],[104.9397574,12.5425197],[104.9398983,12.5424944],[104.9400221,12.5424986],[104.9402462,12.5425575],[104.9403644,12.5426174],[104.9405154,12.5426788],[104.9406844,12.5427182],[104.9408307,12.5427398],[104.9409032,12.5427455],[104.940958,12.5427823],[104.9410158,12.5428586],[104.9410272,12.5429725],[104.9410127,12.5431028],[104.9410084,12.5434882],[104.9408743,12.5443394],[104.9408866,12.5446388],[104.9408922,12.5453005],[104.9408256,12.5463995],[104.9408169,12.5466152],[104.9409081,12.5466907],[104.9408658,12.547564],[104.9409141,12.5479103],[104.9408595,12.5492891],[104.940813,12.549463],[104.9406803,12.5495713],[104.9405749,12.5496445],[104.9402642,12.5497986],[104.9401304,12.5500063],[104.940079,12.550051],[104.940024,12.5500937],[104.9398514,12.5500823],[104.9395785,12.5501207],[104.938991,12.550312],[104.9381398,12.5505532],[104.9379562,12.5505728],[104.9374501,12.5505374],[104.9369932,12.5505944],[104.9367041,12.5506006],[104.9365805,12.5508454],[104.9365137,12.5510093],[104.93639,12.5512655],[104.936247,12.551673],[104.9362437,12.5516868],[104.936133,12.5521071],[104.9362861,12.5522779],[104.9363086,12.5525239],[104.9363232,12.5527397],[104.9363982,12.5529511],[104.9363931,12.5532401],[104.9365551,12.5535991],[104.936635,12.5538252],[104.9367339,12.5540572],[104.9368446,12.5543793],[104.9370115,12.5543629],[104.9370992,12.5547194],[104.9370986,12.5550584],[104.9376135,12.555889],[104.9378483,12.5575899],[104.9376088,12.5583601],[104.9352624,12.5587269],[104.9352429,12.558814],[104.9350634,12.5588156],[104.9350145,12.5590625],[104.9349093,12.5594272],[104.9348617,12.559787],[104.9348143,12.5601503],[104.9347469,12.5606136],[104.934623,12.5618511],[104.9346229,12.5618516],[104.9348881,12.5618792],[104.9348441,12.5620437],[104.934676,12.5624358],[104.9345458,12.5626537],[104.9342886,12.562925],[104.9338709,12.563394],[104.9336681,12.5636517],[104.9335276,12.5637573],[104.9333649,12.5638729],[104.933282,12.5639692],[104.9332465,12.5640677],[104.9332446,12.5642567],[104.9331074,12.5645708],[104.9329698,12.5648402],[104.9328999,12.5649551],[104.9328094,12.5650787],[104.9327942,12.565096],[104.9326817,12.5652484],[104.9326548,12.5653953],[104.9325784,12.5664986],[104.9325381,12.5676225],[104.9324434,12.5677548],[104.9301679,12.5696275],[104.9300484,12.5700551],[104.9299421,12.5703772],[104.9298593,12.5704231],[104.929772,12.5704093],[104.9294195,12.570366],[104.9291035,12.5703409],[104.9290875,12.5703849],[104.9291078,12.5704632],[104.9291826,12.5706611],[104.9292296,12.5708401],[104.9293203,12.5710429],[104.9294375,12.5711792],[104.9295005,12.5712627],[104.929487,12.5713357],[104.9294677,12.5714348],[104.9294247,12.5716291],[104.9294052,12.57179],[104.9294044,12.572018],[104.9294113,12.5723662],[104.9294044,12.5727131],[104.929402,12.5728924],[104.9294163,12.573324],[104.929432,12.573639],[104.9294454,12.5738083],[104.9294606,12.5739569],[104.9295184,12.5739569],[104.9296832,12.5739524],[104.9298319,12.5739538],[104.929862,12.5739832],[104.9298849,12.5740376],[104.9299024,12.5751207],[104.9299171,12.5760278],[104.9298102,12.5760348],[104.9295905,12.5760375],[104.9287002,12.5760172],[104.9276614,12.5760153],[104.9266007,12.5760133],[104.9265326,12.5759545],[104.9265463,12.5751198],[104.9265562,12.5745124],[104.9265396,12.5734587],[104.9265328,12.5728425],[104.9265036,12.5727499],[104.9264506,12.5727272],[104.926298,12.5726773],[104.9262821,12.5726075],[104.9262527,12.5724798],[104.9262312,12.5722995],[104.926199,12.5719501],[104.9261699,12.5713625],[104.9261259,12.5707784],[104.9261041,12.5704004],[104.9260881,12.5700497],[104.9260504,12.5698287],[104.9260169,12.5697599],[104.9259784,12.5697099],[104.925834,12.5697054],[104.9253725,12.5696324],[104.9250698,12.5695716],[104.9247472,12.5695098],[104.924447,12.5694648],[104.924362,12.5694546],[104.9243153,12.5694172],[104.9242646,12.5693776],[104.9242477,12.569315],[104.9242184,12.5690901],[104.9242002,12.5688638],[104.9241826,12.5674554],[104.9241503,12.5658435],[104.9241343,12.565799],[104.9240771,12.5657734],[104.9239691,12.5657482],[104.9233071,12.5656134],[104.9233454,12.5654261],[104.9233672,12.5652922],[104.9233696,12.5651647],[104.9230529,12.5651586],[104.9226667,12.5651649],[104.9221316,12.5651477],[104.9215501,12.5651949],[104.9213969,12.5651838],[104.9211848,12.5642459],[104.9202809,12.564375],[104.9190655,12.5645985],[104.9191198,12.5648851],[104.9180306,12.5650754],[104.918178,12.5659226],[104.9187502,12.5657201],[104.9191103,12.5670143],[104.9171119,12.5674917],[104.9173042,12.5684662],[104.917362,12.5685224],[104.9174806,12.5685233],[104.9176069,12.568898],[104.9163904,12.5690066],[104.9163742,12.5686569],[104.9154543,12.568564],[104.9141328,12.5684545],[104.9142126,12.5674031],[104.9132792,12.5671272],[104.9126735,12.5669255],[104.9127495,12.5666192],[104.9118435,12.5662754],[104.9108165,12.5661615],[104.9102884,12.5662926],[104.9097285,12.5666329],[104.9094879,12.566866],[104.9075947,12.5666744],[104.9075346,12.5672706],[104.9066574,12.5672431],[104.9053401,12.5671771],[104.9052505,12.5690802],[104.9053489,12.5700446],[104.9050326,12.5700159],[104.9050241,12.5699735],[104.9047806,12.5699424],[104.9043379,12.5698796],[104.9042045,12.5699019],[104.9035611,12.5700178],[104.9035725,12.570245],[104.9013006,12.5702495],[104.9012437,12.5694944],[104.8988402,12.5694777],[104.89885,12.5705908],[104.8989727,12.5705791],[104.8990567,12.5705733],[104.8990673,12.5705921],[104.8990809,12.571555],[104.8990943,12.5725036],[104.8959821,12.5725351],[104.8960817,12.5735056],[104.8938808,12.5735976],[104.8939274,12.5744793],[104.8935656,12.5744673],[104.8935782,12.5751087],[104.8935998,12.5762065],[104.8930933,12.5762006],[104.8930825,12.5764517],[104.8923766,12.5764379],[104.8921325,12.5764461],[104.8921338,12.5767861],[104.8921304,12.5770099],[104.8921341,12.5774281],[104.8930288,12.5775316],[104.8930067,12.5781551],[104.8929814,12.5788699],[104.8948155,12.5787413],[104.8948373,12.5797612],[104.8960034,12.5797162],[104.8960889,12.5823666],[104.8944673,12.5822973],[104.8943382,12.5834333],[104.8933849,12.5834512],[104.8933464,12.5838952],[104.8951171,12.583897],[104.8951189,12.5840268],[104.8956381,12.5840287],[104.8956674,12.5851888],[104.8957052,12.585912],[104.8958772,12.5859087],[104.8959685,12.5876991],[104.8948115,12.587702],[104.8932889,12.587957],[104.8934171,12.5886429],[104.8929347,12.5887249],[104.892069,12.5888271],[104.8919198,12.5877793],[104.8947682,12.5872967]]]}}]}
