{"type":"FeatureCollection","features":[{"type":"Feature","properties":{"code":"FRM-BRM-OWN-01","name":"Own plot 01 \u00b7 9.0 ha","area_ha":9.026,"centroid":[12.563252,104.931663]},"geometry":{"type":"Polygon","coordinates":[[[104.93022,12.564919],[104.9302,12.564012],[104.930185,12.563302],[104.9301766,12.5620927],[104.9315491,12.5620877],[104.9323838,12.5620814],[104.9329564,12.5620816],[104.9330901,12.5620861],[104.9337023,12.5620859],[104.9345231,12.5620848],[104.9345357,12.5621912],[104.9344601,12.5623791],[104.9337885,12.5631445],[104.9336715,12.5631407],[104.9336418,12.5629086],[104.9336464,12.5626501],[104.933022,12.5625591],[104.9329254,12.56325],[104.9328151,12.5640501],[104.9327425,12.5640379],[104.9326722,12.563949],[104.9326256,12.5638824],[104.9325843,12.5638126],[104.9325219,12.5637241],[104.9324071,12.5636252],[104.9323173,12.5635817],[104.9322628,12.5636803],[104.9321318,12.5638586],[104.9319505,12.5639458],[104.9317076,12.5640024],[104.9315531,12.564093],[104.9314787,12.5642014],[104.9313775,12.5644924],[104.9313229,12.5646117],[104.9311938,12.564724],[104.9311367,12.5651323],[104.9306147,12.5649164],[104.9304235,12.564931],[104.930459,12.566179],[104.930199,12.566193],[104.93022,12.564919]]]}},{"type":"Feature","properties":{"code":"FRM-BRM-OWN-02","name":"Own plot 02 \u00b7 0.2 ha","area_ha":0.163,"centroid":[12.562827,104.925746]},"geometry":{"type":"Polygon","coordinates":[[[104.9255794,12.5626031],[104.9256554,12.5626067],[104.9257539,12.5626099],[104.9258217,12.5626912],[104.9258633,12.5626941],[104.9258838,12.5627531],[104.9259022,12.5628106],[104.9259556,12.5628471],[104.9259694,12.5628894],[104.925997,12.5629556],[104.9260244,12.5630025],[104.9260216,12.5630025],[104.9258368,12.5629995],[104.9258361,12.5629995],[104.925569,12.5629952],[104.9255522,12.5626017],[104.9255794,12.5626031]]]}},{"type":"Feature","properties":{"code":"FRM-BRM-OWN-03","name":"Own plot 03 \u00b7 0.0 ha","area_ha":0.0,"centroid":[12.563002,104.926022]},"geometry":{"type":"Polygon","coordinates":[[[104.9260216,12.5630025],[104.9260244,12.5630025],[104.9260216,12.5630025],[104.9260216,12.5630025]]]}},{"type":"Feature","properties":{"code":"FRM-BRM-OWN-04","name":"Own plot 04 \u00b7 0.4 ha","area_ha":0.356,"centroid":[12.563318,104.925793]},"geometry":{"type":"Polygon","coordinates":[[[104.9260216,12.5630025],[104.926052,12.5632323],[104.9260384,12.5633195],[104.9260459,12.5634925],[104.9260442,12.5636164],[104.9255695,12.5636509],[104.9255785,12.5632443],[104.9255716,12.5629988],[104.9260216,12.5630025]]]}},{"type":"Feature","properties":{"code":"FRM-BRM-OWN-05","name":"Own plot 05 \u00b7 0.3 ha","area_ha":0.3,"centroid":[12.563885,104.925803]},"geometry":{"type":"Polygon","coordinates":[[[104.9255682,12.563651],[104.9255695,12.5636509],[104.9260442,12.5636164],[104.9260537,12.5636157],[104.9260652,12.5641329],[104.9255611,12.5641379],[104.9255682,12.563651]]]}},{"type":"Feature","properties":{"code":"FRM-BRM-OWN-06","name":"Own plot 06 \u00b7 6.3 ha","area_ha":6.258,"centroid":[12.563031,104.928353]},"geometry":{"type":"Polygon","coordinates":[[[104.9299052,12.5632813],[104.9298879,12.5632874],[104.9298706,12.5637082],[104.92987,12.5637083],[104.92987,12.5637077],[104.929124,12.563779],[104.928828,12.563823],[104.928346,12.563935],[104.928018,12.563978],[104.92782,12.563979],[104.927652,12.564018],[104.927643,12.564022],[104.92731,12.564049],[104.926908,12.564084],[104.926915,12.56282],[104.9269144,12.5625961],[104.926914,12.562466],[104.926949,12.562451],[104.926931,12.562105],[104.9273311,12.5620979],[104.927353,12.562446],[104.9273333,12.5621002],[104.9278745,12.5621144],[104.9279,12.562436],[104.928349,12.562415],[104.9283415,12.5621114],[104.9288027,12.5621216],[104.928828,12.562444],[104.9288028,12.5621224],[104.9291282,12.5621429],[104.9293263,12.5621053],[104.9299019,12.5621009],[104.9299052,12.5632813]]]}},{"type":"Feature","properties":{"code":"FRM-BRM-OWN-07","name":"Own plot 07 \u00b7 0.2 ha","area_ha":0.173,"centroid":[12.562266,104.928095]},"geometry":{"type":"Polygon","coordinates":[[[104.928349,12.562415],[104.9279,12.562436],[104.9278745,12.5621144],[104.9283415,12.5621114],[104.928349,12.562415]]]}},{"type":"Feature","properties":{"code":"FRM-BRM-OWN-08","name":"Own plot 08 \u00b7 0.8 ha","area_ha":0.786,"centroid":[12.564895,104.926724]},"geometry":{"type":"Polygon","coordinates":[[[104.9269021,12.5640862],[104.9269119,12.564269],[104.9269212,12.5644419],[104.926933,12.564764],[104.926933,12.5647648],[104.92692,12.565679],[104.9267719,12.5656802],[104.9265224,12.5656821],[104.926501,12.5648186],[104.9268535,12.564774],[104.9265054,12.5648147],[104.9265042,12.5644389],[104.9265037,12.5642689],[104.9265033,12.5641375],[104.9269021,12.5640862]]]}},{"type":"Feature","properties":{"code":"FRM-BRM-OWN-09","name":"Own plot 09 \u00b7 2.2 ha","area_ha":2.217,"centroid":[12.564273,104.928249]},"geometry":{"type":"Polygon","coordinates":[[[104.929524,12.564473],[104.929333,12.564501],[104.929143,12.564512],[104.928838,12.564559],[104.928352,12.564622],[104.928043,12.564657],[104.927666,12.564702],[104.927324,12.564728],[104.9269384,12.5647635],[104.9269212,12.5644419],[104.926908,12.564084],[104.92731,12.564049],[104.9275385,12.5640305],[104.927643,12.564022],[104.927652,12.564018],[104.92782,12.563979],[104.928018,12.563978],[104.928346,12.563935],[104.928828,12.563823],[104.929124,12.563779],[104.92953,12.563727],[104.929524,12.564473]]]}},{"type":"Feature","properties":{"code":"FRM-BRM-OWN-10","name":"Own plot 10 \u00b7 1.9 ha","area_ha":1.864,"centroid":[12.566023,104.92971]},"geometry":{"type":"Polygon","coordinates":[[[104.9298701,12.5671061],[104.9298703,12.5671129],[104.9299025,12.5681178],[104.9299104,12.5683653],[104.9295797,12.56841],[104.9295725,12.5681177],[104.929554,12.567364],[104.929559,12.567121],[104.9295432,12.5660122],[104.9295393,12.5657346],[104.9295329,12.5652897],[104.929532,12.565223],[104.929524,12.564473],[104.9295262,12.5641937],[104.9295267,12.5641315],[104.9295299,12.5637402],[104.92953,12.563727],[104.92987,12.5637077],[104.9298701,12.5671061]]]}},{"type":"Feature","properties":{"code":"FRM-BRM-OWN-11","name":"Own plot 11 \u00b7 0.0 ha","area_ha":0.01,"centroid":[12.566603,104.929957]},"geometry":{"type":"Polygon","coordinates":[[[104.929532,12.565223],[104.9295329,12.5652897],[104.9295393,12.5657346],[104.9295432,12.5660122],[104.929559,12.567121],[104.929554,12.567364],[104.9295318,12.565223],[104.929532,12.565223]]]}},{"type":"Feature","properties":{"code":"FRM-BRM-OWN-12","name":"Own plot 12 \u00b7 10.3 ha","area_ha":10.252,"centroid":[12.566332,104.928204]},"geometry":{"type":"Polygon","coordinates":[[[104.9295318,12.565223],[104.929357,12.565233],[104.929386,12.56737],[104.929554,12.567364],[104.9295725,12.5681177],[104.9295797,12.56841],[104.9294032,12.5684306],[104.929376,12.567873],[104.926967,12.5681216],[104.926944,12.567276],[104.92692,12.565679],[104.9269384,12.5647635],[104.927324,12.564728],[104.927666,12.564702],[104.928043,12.564657],[104.928352,12.564622],[104.928838,12.564559],[104.929143,12.564512],[104.929333,12.564501],[104.929524,12.564473],[104.9295318,12.565223]]]}},{"type":"Feature","properties":{"code":"FRM-BRM-OWN-13","name":"Own plot 13 \u00b7 0.4 ha","area_ha":0.443,"centroid":[12.566291,104.929463]},"geometry":{"type":"Polygon","coordinates":[[[104.929554,12.567364],[104.929386,12.56737],[104.929357,12.565233],[104.9295318,12.565223],[104.929554,12.567364]]]}},{"type":"Feature","properties":{"code":"FRM-BRM-OWN-14","name":"Own plot 14 \u00b7 0.7 ha","area_ha":0.695,"centroid":[12.56822,104.928883]},"geometry":{"type":"Polygon","coordinates":[[[104.9294032,12.5684306],[104.9292319,12.568449],[104.9291726,12.5684552],[104.9291726,12.5684554],[104.9289005,12.5684948],[104.9283695,12.5685753],[104.9283703,12.5679812],[104.928886,12.567955],[104.9290886,12.5679027],[104.929157,12.567885],[104.929376,12.567873],[104.9294032,12.5684306]]]}},{"type":"Feature","properties":{"code":"FRM-BRM-OWN-15","name":"Own plot 15 \u00b7 1.9 ha","area_ha":1.859,"centroid":[12.568622,104.926964]},"geometry":{"type":"Polygon","coordinates":[[[104.9261374,12.5685528],[104.926128,12.5682189],[104.9265745,12.5681765],[104.9269178,12.5681285],[104.926967,12.5681216],[104.9274363,12.5680732],[104.9274729,12.5680694],[104.927718,12.5680474],[104.9277184,12.5680577],[104.9277176,12.5690715],[104.9263021,12.5691921],[104.9261374,12.5685528]]]}},{"type":"Feature","properties":{"code":"FRM-BRM-OWN-16","name":"Own plot 16 \u00b7 0.5 ha","area_ha":0.476,"centroid":[12.567764,104.926351]},"geometry":{"type":"Polygon","coordinates":[[[104.926102,12.5679214],[104.9261461,12.5673397],[104.926157,12.5673382],[104.926559,12.567284],[104.9265745,12.5681765],[104.926128,12.5682189],[104.926102,12.5679214]]]}},{"type":"Feature","properties":{"code":"FRM-BRM-OWN-17","name":"Own plot 17 \u00b7 0.4 ha","area_ha":0.409,"centroid":[12.567716,104.926753]},"geometry":{"type":"Polygon","coordinates":[[[104.926559,12.567284],[104.926944,12.567276],[104.9269676,12.5681215],[104.926967,12.5681216],[104.9269178,12.5681285],[104.9265745,12.5681765],[104.926559,12.567284]]]}},{"type":"Feature","properties":{"code":"FRM-BRM-OWN-18","name":"Own plot 18 \u00b7 0.8 ha","area_ha":0.826,"centroid":[12.566535,104.926326]},"geometry":{"type":"Polygon","coordinates":[[[104.9260614,12.5658064],[104.926553,12.565798],[104.926559,12.567284],[104.926157,12.5673382],[104.9261461,12.5673397],[104.9260614,12.5658064]]]}},{"type":"Feature","properties":{"code":"FRM-BRM-OWN-19","name":"Own plot 19 \u00b7 0.7 ha","area_ha":0.724,"centroid":[12.56649,104.926753]},"geometry":{"type":"Polygon","coordinates":[[[104.926944,12.567276],[104.926559,12.567284],[104.926553,12.565798],[104.926563,12.565689],[104.92692,12.565679],[104.926944,12.567276]]]}},{"type":"Feature","properties":{"code":"FRM-BRM-OWN-20","name":"Own plot 20 \u00b7 0.5 ha","area_ha":0.528,"centroid":[12.56268,104.925077]},"geometry":{"type":"Polygon","coordinates":[[[104.9252899,12.5631726],[104.9250279,12.5631798],[104.9248907,12.5631172],[104.924795,12.563029],[104.9248739,12.5625753],[104.9248307,12.5622048],[104.9248284,12.5621831],[104.9252942,12.5621926],[104.9252899,12.5631726]]]}},{"type":"Feature","properties":{"code":"FRM-BRM-OWN-21","name":"Own plot 21 \u00b7 0.3 ha","area_ha":0.285,"centroid":[12.562805,104.92454]},"geometry":{"type":"Polygon","coordinates":[[[104.9243588,12.5630061],[104.9241034,12.5626901],[104.9243726,12.56265],[104.9248739,12.5625753],[104.924795,12.563029],[104.9243588,12.5630061]]]}},{"type":"Feature","properties":{"code":"FRM-BRM-OWN-22","name":"Own plot 22 \u00b7 0.3 ha","area_ha":0.268,"centroid":[12.562401,104.924587]},"geometry":{"type":"Polygon","coordinates":[[[104.9248307,12.5622048],[104.9248739,12.5625753],[104.9243726,12.56265],[104.9242875,12.5622005],[104.9248282,12.5621831],[104.9248307,12.5622048]]]}},{"type":"Feature","properties":{"code":"FRM-BRM-OWN-23","name":"Own plot 23 \u00b7 0.2 ha","area_ha":0.233,"centroid":[12.562406,104.924096]},"geometry":{"type":"Polygon","coordinates":[[[104.9241061,12.5626896],[104.9238621,12.5623501],[104.9238144,12.5621755],[104.9242875,12.5622005],[104.9243726,12.56265],[104.9241061,12.5626896]]]}},{"type":"Feature","properties":{"code":"FRM-BRM-OWN-24","name":"Own plot 24 \u00b7 0.4 ha","area_ha":0.37,"centroid":[12.562423,104.923113]},"geometry":{"type":"Polygon","coordinates":[[[104.9227808,12.5626722],[104.922801,12.5621772],[104.922801,12.5621772],[104.9234019,12.5621794],[104.9234615,12.5626394],[104.9227808,12.5626722]]]}},{"type":"Feature","properties":{"code":"FRM-BRM-OWN-25","name":"Own plot 25 \u00b7 0.3 ha","area_ha":0.267,"centroid":[12.562811,104.923102]},"geometry":{"type":"Polygon","coordinates":[[[104.9234961,12.5629551],[104.9227638,12.5629815],[104.9227808,12.5626722],[104.9234615,12.5626394],[104.9234961,12.5629551]]]}},{"type":"Feature","properties":{"code":"FRM-BRM-OWN-26","name":"Own plot 26 \u00b7 0.2 ha","area_ha":0.154,"centroid":[12.563193,104.92369]},"geometry":{"type":"Polygon","coordinates":[[[104.923604,12.5629606],[104.9236399,12.5630091],[104.9238312,12.5630761],[104.9238652,12.5631192],[104.9238728,12.5633803],[104.923518,12.5633662],[104.9234961,12.5629551],[104.923604,12.5629606]]]}},{"type":"Feature","properties":{"code":"FRM-BRM-OWN-27","name":"Own plot 27 \u00b7 0.4 ha","area_ha":0.361,"centroid":[12.563168,104.923134]},"geometry":{"type":"Polygon","coordinates":[[[104.923518,12.5633662],[104.9227372,12.5633615],[104.9227638,12.5629815],[104.9234961,12.5629551],[104.923518,12.5633662]]]}},{"type":"Feature","properties":{"code":"FRM-BRM-OWN-28","name":"Own plot 28 \u00b7 0.4 ha","area_ha":0.394,"centroid":[12.562827,104.922217]},"geometry":{"type":"Polygon","coordinates":[[[104.9227638,12.5629815],[104.9224997,12.5629767],[104.9224687,12.5628971],[104.922392,12.562872],[104.9222944,12.5628925],[104.9221403,12.5629641],[104.922074,12.5630032],[104.9216664,12.5630136],[104.921638,12.56268],[104.9227808,12.5626722],[104.9227638,12.5629815]]]}},{"type":"Feature","properties":{"code":"FRM-BRM-OWN-29","name":"Own plot 29 \u00b7 0.7 ha","area_ha":0.738,"centroid":[12.562419,104.922179]},"geometry":{"type":"Polygon","coordinates":[[[104.9227808,12.5626722],[104.921638,12.56268],[104.9215148,12.5621673],[104.922801,12.5621772],[104.922801,12.5621772],[104.9227808,12.5626722]]]}},{"type":"Feature","properties":{"code":"FRM-BRM-OWN-30","name":"Own plot 30 \u00b7 0.5 ha","area_ha":0.508,"centroid":[12.562427,104.921172]},"geometry":{"type":"Polygon","coordinates":[[[104.921638,12.56268],[104.9208005,12.5626988],[104.9207773,12.5621422],[104.9215148,12.5621673],[104.921638,12.56268]]]}},{"type":"Feature","properties":{"code":"FRM-BRM-OWN-31","name":"Own plot 31 \u00b7 0.3 ha","area_ha":0.349,"centroid":[12.562861,104.921226]},"geometry":{"type":"Polygon","coordinates":[[[104.9216664,12.5630136],[104.9208096,12.5630467],[104.9208005,12.5626988],[104.921638,12.56268],[104.9216664,12.5630136]]]}},{"type":"Feature","properties":{"code":"FRM-BRM-OWN-32","name":"Own plot 32 \u00b7 0.6 ha","area_ha":0.582,"centroid":[12.562796,104.920614]},"geometry":{"type":"Polygon","coordinates":[[[104.9208005,12.5626988],[104.9208096,12.5630467],[104.92081,12.5634988],[104.9205587,12.5634984],[104.9205861,12.5633902],[104.9205661,12.5633483],[104.9204605,12.563294],[104.9204309,12.5630597],[104.9204032,12.5627362],[104.9204145,12.562214],[104.9204491,12.5621688],[104.9207773,12.5621422],[104.9208005,12.5626988]]]}},{"type":"Feature","properties":{"code":"FRM-BRM-OWN-33","name":"Own plot 33 \u00b7 0.5 ha","area_ha":0.52,"centroid":[12.563272,104.921247]},"geometry":{"type":"Polygon","coordinates":[[[104.9217431,12.5634926],[104.9210712,12.5635266],[104.9210708,12.5635267],[104.92081,12.5634988],[104.9208096,12.5630467],[104.9216664,12.5630136],[104.9217431,12.5634926]]]}},{"type":"Feature","properties":{"code":"FRM-BRM-OWN-34","name":"Own plot 34 \u00b7 0.4 ha","area_ha":0.394,"centroid":[12.563754,104.920722]},"geometry":{"type":"Polygon","coordinates":[[[104.9211292,12.5638813],[104.9211338,12.5639105],[104.9204252,12.5640533],[104.920373,12.563618],[104.9205403,12.5635686],[104.9205576,12.5634983],[104.9205587,12.5634984],[104.92081,12.5634988],[104.9210708,12.5635267],[104.9211292,12.5638813]]]}},{"type":"Feature","properties":{"code":"FRM-BRM-OWN-35","name":"Own plot 35 \u00b7 0.5 ha","area_ha":0.481,"centroid":[12.563656,104.921715]},"geometry":{"type":"Polygon","coordinates":[[[104.92233,12.563816],[104.921407,12.563775],[104.921407,12.563853],[104.9211338,12.5639105],[104.9211292,12.5638813],[104.9211145,12.5637877],[104.9210712,12.5635266],[104.9217431,12.5634926],[104.922343,12.563466],[104.92233,12.563816]]]}},{"type":"Feature","properties":{"code":"FRM-BRM-OWN-36","name":"Own plot 36 \u00b7 0.3 ha","area_ha":0.345,"centroid":[12.563954,104.921881]},"geometry":{"type":"Polygon","coordinates":[[[104.9223139,12.5641592],[104.921482,12.56408],[104.921407,12.563853],[104.921407,12.563775],[104.92233,12.563816],[104.9223139,12.5641592]]]}},{"type":"Feature","properties":{"code":"FRM-BRM-OWN-37","name":"Own plot 37 \u00b7 0.2 ha","area_ha":0.165,"centroid":[12.563637,104.922502]},"geometry":{"type":"Polygon","coordinates":[[[104.9227284,12.5638102],[104.92233,12.563816],[104.922343,12.563466],[104.9227326,12.5634665],[104.9227284,12.5638102]]]}},{"type":"Feature","properties":{"code":"FRM-BRM-OWN-38","name":"Own plot 38 \u00b7 0.2 ha","area_ha":0.166,"centroid":[12.563982,104.922491]},"geometry":{"type":"Polygon","coordinates":[[[104.9227092,12.5641591],[104.9223139,12.5641592],[104.92233,12.563816],[104.9227284,12.5638102],[104.9227092,12.5641591]]]}},{"type":"Feature","properties":{"code":"FRM-BRM-OWN-39","name":"Own plot 39 \u00b7 0.2 ha","area_ha":0.159,"centroid":[12.563641,104.922934]},"geometry":{"type":"Polygon","coordinates":[[[104.9230864,12.5638243],[104.9227284,12.5638102],[104.9227326,12.5634665],[104.923127,12.563467],[104.9230864,12.5638243]]]}},{"type":"Feature","properties":{"code":"FRM-BRM-OWN-40","name":"Own plot 40 \u00b7 0.1 ha","area_ha":0.15,"centroid":[12.563996,104.922912]},"geometry":{"type":"Polygon","coordinates":[[[104.9230449,12.5641886],[104.9227092,12.5641591],[104.9227284,12.5638102],[104.9230864,12.5638243],[104.9230449,12.5641886]]]}},{"type":"Feature","properties":{"code":"FRM-BRM-OWN-41","name":"Own plot 41 \u00b7 0.2 ha","area_ha":0.212,"centroid":[12.564014,104.923285]},"geometry":{"type":"Polygon","coordinates":[[[104.9235195,12.5642129],[104.9230449,12.5641886],[104.9230864,12.5638243],[104.9235602,12.5638382],[104.9235195,12.5642129]]]}},{"type":"Feature","properties":{"code":"FRM-BRM-OWN-42","name":"Own plot 42 \u00b7 0.4 ha","area_ha":0.394,"centroid":[12.564536,104.923253]},"geometry":{"type":"Polygon","coordinates":[[[104.923462,12.56488],[104.922969,12.564856],[104.9230246,12.5643669],[104.9230449,12.5641886],[104.9235195,12.5642129],[104.9235258,12.5642129],[104.923462,12.56488]]]}},{"type":"Feature","properties":{"code":"FRM-BRM-OWN-43","name":"Own plot 43 \u00b7 0.3 ha","area_ha":0.261,"centroid":[12.564504,104.922828]},"geometry":{"type":"Polygon","coordinates":[[[104.922969,12.564856],[104.922671,12.56485],[104.9227092,12.5641591],[104.9230449,12.5641886],[104.922969,12.564856]]]}},{"type":"Feature","properties":{"code":"FRM-BRM-OWN-44","name":"Own plot 44 \u00b7 0.3 ha","area_ha":0.319,"centroid":[12.564497,104.922512]},"geometry":{"type":"Polygon","coordinates":[[[104.922671,12.56485],[104.922283,12.564815],[104.9223139,12.5641592],[104.9227092,12.5641591],[104.922671,12.56485]]]}},{"type":"Feature","properties":{"code":"FRM-BRM-OWN-45","name":"Own plot 45 \u00b7 0.6 ha","area_ha":0.633,"centroid":[12.564464,104.921925]},"geometry":{"type":"Polygon","coordinates":[[[104.922283,12.564815],[104.921651,12.564861],[104.921482,12.56408],[104.9223139,12.5641592],[104.922283,12.564815]]]}},{"type":"Feature","properties":{"code":"FRM-BRM-OWN-46","name":"Own plot 46 \u00b7 0.2 ha","area_ha":0.201,"centroid":[12.563654,104.923331]},"geometry":{"type":"Polygon","coordinates":[[[104.9235602,12.5638382],[104.9230864,12.5638243],[104.923127,12.563467],[104.9235862,12.5634854],[104.9235602,12.5638382]]]}},{"type":"Feature","properties":{"code":"FRM-BRM-OWN-47","name":"Own plot 47 \u00b7 0.5 ha","area_ha":0.549,"centroid":[12.564695,104.923719]},"geometry":{"type":"Polygon","coordinates":[[[104.9239517,12.5645456],[104.9239011,12.565427],[104.923707,12.565416],[104.923639,12.56493],[104.923462,12.56488],[104.9235258,12.5642129],[104.9235602,12.5638382],[104.9239517,12.5645456]]]}}]}
