{"type":"FeatureCollection","features":[{"type":"Feature","properties":{"kind":"road","name":"Placemark","main":false},"geometry":{"type":"LineString","coordinates":[[104.9138524,12.5489018],[104.9138194,12.5452938]]}},{"type":"Feature","properties":{"kind":"road","name":"Placemark","main":false},"geometry":{"type":"LineString","coordinates":[[104.9139415,12.545304],[104.9140047,12.5489574],[104.913955,12.5489462],[104.9138541,12.5488967]]}},{"type":"Feature","properties":{"kind":"road","name":"Rorad","main":true},"geometry":{"type":"LineString","coordinates":[[104.916154,12.541351],[104.9160331,12.540976],[104.9159416,12.540594],[104.9159091,12.540285],[104.9159008,12.5398014],[104.9159741,12.5394058],[104.9160957,12.5391168],[104.9163131,12.5387293],[104.9164416,12.5385511],[104.9167072,12.5382931],[104.9172033,12.5380903],[104.9176742,12.5378888],[104.9181125,12.5376924],[104.9184963,12.5376698],[104.9188139,12.5377739],[104.9189281,12.538045],[104.9190389,12.5385659],[104.9193315,12.5392135],[104.9194589,12.5393268],[104.9197444,12.5394308],[104.9200647,12.5395184],[104.9204293,12.5396112],[104.9209556,12.5395803],[104.9211882,12.5395026],[104.9218098,12.5390559],[104.9223271,12.5385733],[104.9226574,12.5382503],[104.9231609,12.5377499],[104.9234792,12.5373949],[104.923524,12.5372838],[104.9235719,12.5371702],[104.9237176,12.5371102],[104.9254785,12.5369716],[104.9257164,12.5369718],[104.9258667,12.5370428],[104.9259477,12.5371201],[104.9259496,12.5372282],[104.9258811,12.5374054],[104.9256909,12.5380585],[104.9254949,12.5387402],[104.9254034,12.5395104],[104.9252975,12.5407179],[104.9256448,12.5413526],[104.9260564,12.542016],[104.926508,12.5425857],[104.9266199,12.5426886],[104.9275336,12.5431484],[104.9277402,12.5432735],[104.9279046,12.5434213],[104.9280286,12.5435541],[104.9281084,12.543618],[104.9282151,12.5436379],[104.928342,12.5436418],[104.9284016,12.5436289],[104.9284514,12.5436257],[104.928579,12.5436],[104.9287367,12.5436419],[104.9288913,12.5437237],[104.9290304,12.5438007],[104.9291594,12.5438273],[104.9293464,12.5437797],[104.9295156,12.5436762],[104.9300506,12.5435727],[104.9306352,12.5436118],[104.9310572,12.5436367],[104.9312199,12.5436415],[104.9313933,12.5436262],[104.9316047,12.5435885],[104.9317851,12.5435446],[104.9319256,12.5434924],[104.9321643,12.543428],[104.9323535,12.5433991],[104.9328346,12.5433976],[104.9333462,12.5434055],[104.933549,12.5433979],[104.9336839,12.5433865],[104.9338452,12.5433262],[104.9340327,12.543223],[104.9341725,12.5431475],[104.9342962,12.543077],[104.9345767,12.54294],[104.9348492,12.5427854],[104.9352539,12.5426562],[104.9356142,12.5425636],[104.9360839,12.542335],[104.9364178,12.5421336],[104.9367675,12.5419515],[104.9370197,12.5419552],[104.9372455,12.5419694],[104.9375713,12.5419753],[104.9378784,12.5420264],[104.9384013,12.542147],[104.9389866,12.5423295],[104.9391903,12.5424159],[104.9393623,12.5425],[104.9395028,12.5425438],[104.9396005,12.5425709],[104.9397601,12.542538],[104.9399064,12.5425109],[104.9400625,12.5425282],[104.9402289,12.5425783],[104.9403641,12.5426349],[104.9405133,12.5426987],[104.9406829,12.542725],[104.9408214,12.5427405],[104.9408723,12.5427648],[104.9409263,12.5427872],[104.940969,12.5428291],[104.9409985,12.5428744],[104.9410165,12.5429494],[104.9410127,12.5431028],[104.9409794,12.5433753],[104.9409685,12.5434649],[104.9409433,12.5436704],[104.940901,12.5439716],[104.9408491,12.5441799],[104.9408586,12.5443328],[104.9408866,12.5446388],[104.9408714,12.5450425],[104.9408256,12.5456336],[104.9407817,12.5460072],[104.9407454,12.5463308],[104.9407288,12.5465239],[104.9407836,12.5465819],[104.9408169,12.5466152],[104.9408645,12.5466869],[104.9408743,12.5467423],[104.9408336,12.5470103],[104.9408068,12.5473014],[104.9408044,12.5475276],[104.9408681,12.5476839],[104.940892,12.5478774],[104.94089,12.5481869],[104.9408817,12.5484201],[104.9408576,12.5488253],[104.9408403,12.549119],[104.940808,12.5493609],[104.9407696,12.5494293],[104.9406658,12.5495331],[104.9405765,12.5496031],[104.9404411,12.5496555],[104.9402723,12.5497353],[104.9401637,12.5498249],[104.9400975,12.5499979],[104.940079,12.550051],[104.940024,12.5500937],[104.9398514,12.5500823],[104.9395966,12.550102],[104.9389935,12.5502689],[104.9381371,12.5505256],[104.9379568,12.5505419],[104.9374501,12.5505374],[104.9369932,12.5505944],[104.9367041,12.5506006],[104.9365805,12.5508454],[104.9365137,12.5510093],[104.93639,12.5512655],[104.936247,12.551673],[104.9362437,12.5516868],[104.936133,12.5521071],[104.9362861,12.5522779],[104.9363086,12.5525239],[104.9363232,12.5527397],[104.9363982,12.5529511],[104.9363931,12.5532401],[104.9365551,12.5535991],[104.936635,12.5538252],[104.9367339,12.5540572],[104.9368446,12.5543793],[104.9370115,12.5543629],[104.9370992,12.5547194],[104.9370986,12.5550584],[104.9376135,12.555889],[104.9378483,12.5575899],[104.9376088,12.5583601],[104.9352624,12.5587269],[104.9352429,12.558814],[104.9350634,12.5588156],[104.9350145,12.5590625],[104.9349093,12.5594272],[104.9348617,12.559787],[104.9348143,12.5601503],[104.9347469,12.5606136],[104.9346229,12.5618516],[104.9348458,12.5618735],[104.9348041,12.5619946],[104.9346801,12.5622621],[104.934619,12.5624225],[104.9346078,12.5624419],[104.9345109,12.5626465],[104.934276,12.5628851],[104.9338737,12.5633695],[104.9336654,12.5636151],[104.9335207,12.5637265],[104.9334211,12.5637854],[104.9333409,12.563848],[104.9333302,12.5638637],[104.9332802,12.5639231],[104.9332533,12.5640077],[104.9332571,12.5641227],[104.9332446,12.5642567],[104.9331074,12.5645708],[104.9329698,12.5648402],[104.9328999,12.5649551],[104.9328094,12.5650787],[104.9327942,12.565096],[104.9326817,12.5652484],[104.9326548,12.5653953],[104.9326077,12.5657385],[104.9323716,12.567637],[104.9299733,12.5695888],[104.9299234,12.5700503],[104.9298806,12.5702429],[104.9298299,12.5703771],[104.929772,12.5704093],[104.9294195,12.570366],[104.9291035,12.5703409],[104.9290875,12.5703849],[104.9291078,12.5704632],[104.9291826,12.5706611],[104.9292296,12.5708401],[104.9293203,12.5710429],[104.9294375,12.5711792],[104.9295005,12.5712627],[104.929487,12.5713357],[104.9294677,12.5714348],[104.9294247,12.5716291],[104.9294052,12.57179],[104.9294044,12.572018],[104.9294113,12.5723662],[104.9294044,12.5727131],[104.929402,12.5728924],[104.9294163,12.573324],[104.929432,12.573639],[104.9294454,12.5738083],[104.9294606,12.5739569],[104.9295184,12.5739569],[104.9296832,12.5739524],[104.9298319,12.5739538],[104.929862,12.5739832],[104.9298849,12.5740376],[104.9298885,12.5759347],[104.9298423,12.5759485],[104.9296753,12.5759559],[104.9287331,12.5759733],[104.9266342,12.5759891],[104.9265832,12.5759394],[104.926582,12.5758747],[104.9265824,12.5745346],[104.9265721,12.5734796],[104.9265583,12.5728372],[104.9265151,12.5727477],[104.9264652,12.5727163],[104.9263649,12.5726851],[104.9262821,12.5726075],[104.9262527,12.5724798],[104.9262312,12.5722995],[104.926199,12.5719501],[104.9261699,12.5713625],[104.9261259,12.5707784],[104.9261041,12.5704004],[104.9260881,12.5700497],[104.9260504,12.5698287],[104.9260169,12.5697599],[104.9259784,12.5697099],[104.925834,12.5697054],[104.9253725,12.5696324],[104.9250698,12.5695716],[104.9247472,12.5695098],[104.924447,12.5694648],[104.924362,12.5694546],[104.9243153,12.5694172],[104.9242646,12.5693776],[104.9242477,12.569315],[104.9242184,12.5690901],[104.9242002,12.5688638],[104.9241826,12.5674554],[104.9241503,12.5658435],[104.9241343,12.565799],[104.9240771,12.5657734],[104.9239691,12.5657482],[104.9233627,12.5655851],[104.9233736,12.5654562],[104.9234104,12.5653067],[104.9234071,12.565216],[104.9234038,12.5652079],[104.9233911,12.5651396],[104.9230613,12.5651357],[104.9226844,12.5651348],[104.9221335,12.5651353],[104.9217109,12.5651688],[104.9214715,12.5651773],[104.9212456,12.564218],[104.9191153,12.5646326],[104.9191516,12.5649032],[104.9180306,12.5650754],[104.9184182,12.5672228],[104.9171119,12.5674917],[104.9173042,12.5684662],[104.917362,12.5685224],[104.9174806,12.5685233],[104.9176069,12.568898],[104.9163904,12.5690066],[104.9163742,12.5686569],[104.9154543,12.568564],[104.9141328,12.5684545],[104.9142126,12.5674031],[104.9132792,12.5671272],[104.9126735,12.5669255],[104.9127495,12.5666192],[104.9118435,12.5662754],[104.9108165,12.5661615],[104.9102884,12.5662926],[104.9097285,12.5666329],[104.9094879,12.566866],[104.9075947,12.5666744],[104.9075346,12.5672706],[104.9066574,12.5672431],[104.9053401,12.5671771],[104.9052505,12.5690802],[104.9053526,12.5701378],[104.9035792,12.5700639],[104.9035725,12.570245],[104.9013006,12.5702495],[104.9012437,12.5694944],[104.8988402,12.5694777],[104.89885,12.5705908],[104.8989727,12.5705791],[104.8990567,12.5705733],[104.8990673,12.5705921],[104.8990943,12.5725036],[104.8959821,12.5725351],[104.8960817,12.5735056],[104.8938808,12.5735976],[104.8939274,12.5744793],[104.8935656,12.5744673],[104.8935998,12.5762065],[104.8930933,12.5762006],[104.8930825,12.5764517],[104.8923766,12.5764379],[104.8921325,12.5764461],[104.8921338,12.5767861],[104.8921304,12.5770099],[104.8921341,12.5774281],[104.8930288,12.5775316],[104.8929814,12.5788699],[104.8948155,12.5787413],[104.8948373,12.5797612],[104.8961863,12.579707],[104.8963456,12.5806151],[104.8964444,12.5813911],[104.8971671,12.58139],[104.8972399,12.5822425],[104.8969954,12.5822634],[104.8969897,12.5824131],[104.8944673,12.5822973],[104.8943382,12.5834333],[104.8933849,12.5834512],[104.8933464,12.5838952],[104.8951171,12.583897],[104.8951189,12.5840268],[104.8956381,12.5840287],[104.8956674,12.5851888],[104.8957052,12.585912],[104.8958772,12.5859087],[104.8959685,12.5876991],[104.8948115,12.587702],[104.8932889,12.587957],[104.8934171,12.5886429],[104.8929347,12.5887249],[104.892069,12.5888271],[104.8919198,12.5877793],[104.8927991,12.5876261],[104.8932481,12.5875417],[104.8947682,12.5872967],[104.8947396,12.5867599],[104.8952582,12.586695],[104.8951641,12.5848854],[104.8944271,12.5849511],[104.8943993,12.5855366],[104.8931096,12.5856366],[104.8935302,12.5871299],[104.8909522,12.5875428],[104.8909004,12.5871616],[104.8901721,12.5872719],[104.8901228,12.5869419],[104.8885549,12.587052],[104.8883846,12.5858414],[104.889558,12.5857387],[104.8891231,12.5835029],[104.8879315,12.5833994],[104.8878179,12.582026],[104.8894999,12.5820749],[104.8894786,12.5816249],[104.8886531,12.5816066],[104.8886153,12.5808979],[104.8900595,12.580704],[104.8898776,12.5790224],[104.8896751,12.5790609],[104.8895837,12.578075],[104.8885711,12.5780039],[104.888568,12.5770517],[104.8870631,12.5769827],[104.8870632,12.5766282],[104.8870286,12.5739365],[104.8888279,12.5742333],[104.8892773,12.56223],[104.8911429,12.5623317],[104.8913422,12.5606756],[104.888634,12.5605185],[104.8885493,12.5575438],[104.8898777,12.5571137],[104.8898406,12.5567823],[104.8909482,12.5567209],[104.8909893,12.5565776],[104.8923384,12.5565888],[104.8934023,12.5566295],[104.89354,12.5569156],[104.8964409,12.5579237],[104.8981126,12.5576702],[104.8978297,12.5565973],[104.9000569,12.5566688],[104.9008188,12.5567252],[104.9013633,12.556796],[104.9020933,12.5568689],[104.9023485,12.5569073],[104.904577,12.5571699],[104.905782,12.5572726],[104.9077843,12.5574825],[104.9100086,12.5576882],[104.9101,12.5577172],[104.9115978,12.5578686],[104.911191,12.5554103],[104.9111113,12.5536985],[104.91355,12.5543001],[104.914868,12.5545866],[104.9157758,12.5546015],[104.9162682,12.5528464],[104.9195267,12.5528267],[104.9198442,12.5517321],[104.9200566,12.5506751],[104.9201537,12.5502719],[104.9202076,12.5499651],[104.9203096,12.5496301],[104.9203407,12.5494617],[104.9203802,12.5492239],[104.9203992,12.5489875],[104.9204052,12.5487767],[104.9203632,12.5485574],[104.9203394,12.5484569],[104.9201232,12.5484584],[104.9199186,12.5485174],[104.9196898,12.5486268],[104.919467,12.548858],[104.9192446,12.5491092],[104.9190422,12.5493002],[104.9188709,12.5493671],[104.9182641,12.5496161],[104.9170688,12.5501829],[104.9169412,12.5502234],[104.9168055,12.5502989],[104.9166964,12.5504118],[104.9166121,12.550546],[104.9164836,12.5506106],[104.9162804,12.5505913],[104.9161636,12.5505644],[104.9161144,12.5505302],[104.9160503,12.5505341],[104.9159278,12.5505589],[104.9157924,12.5505773],[104.9155868,12.5505686],[104.915375,12.5505221],[104.9151722,12.5503859],[104.9149156,12.5501365],[104.9145892,12.5498851],[104.9145056,12.5498299],[104.9143333,12.5497726],[104.9141431,12.5496807],[104.9139654,12.5496136],[104.9138168,12.5495645],[104.9136366,12.5495431],[104.9133451,12.5495532],[104.9130441,12.5494966],[104.9128882,12.5494507],[104.9126963,12.5493356],[104.9125038,12.5492226],[104.9124073,12.5492217],[104.9123007,12.5491783],[104.9120517,12.5490857],[104.9118993,12.5490434],[104.911776,12.5489982],[104.9116518,12.548991],[104.9114669,12.5489189],[104.9113504,12.5488748],[104.9113251,12.5488513],[104.9105786,12.5494409],[104.9101486,12.54922],[104.9094375,12.5490069],[104.9094556,12.5482606],[104.90943,12.5475502],[104.9096477,12.546582],[104.9097063,12.5457094],[104.9098203,12.5448881],[104.9099098,12.5446425],[104.9106527,12.5447552],[104.9112447,12.5444016],[104.9117554,12.5442352],[104.9123938,12.5436507],[104.9129888,12.5433975],[104.9137165,12.5430951],[104.9140955,12.5428652],[104.9141505,12.5427203],[104.9144434,12.5426636],[104.9148012,12.5425493],[104.9150998,12.5424286],[104.915117,12.5424285],[104.9153554,12.5422805],[104.9157552,12.5419445],[104.9158307,12.54206],[104.9160611,12.5415297],[104.916154,12.541351]]}},{"type":"Feature","properties":{"kind":"road","name":"Placemark","main":false},"geometry":{"type":"LineString","coordinates":[[104.9352867,12.5509257],[104.9338598,12.5512057],[104.9329853,12.5513683],[104.9324974,12.5513772],[104.9323867,12.5521096],[104.9349089,12.5524268],[104.9349734,12.5524449]]}},{"type":"Feature","properties":{"kind":"road","name":"Placemark","main":false},"geometry":{"type":"LineString","coordinates":[[104.925679,12.5420068],[104.9256697,12.5420882]]}},{"type":"Feature","properties":{"kind":"road","name":"Placemark","main":false},"geometry":{"type":"LineString","coordinates":[[104.9235985,12.5423589],[104.9248988,12.5422447],[104.9256697,12.5420882],[104.9259551,12.5421516]]}},{"type":"Feature","properties":{"kind":"road","name":"Placemark","main":false},"geometry":{"type":"LineString","coordinates":[[104.9306272,12.5437777],[104.9303843,12.5437419],[104.9301396,12.5437186],[104.9298951,12.5437459],[104.9296006,12.5438221],[104.9293683,12.5439366],[104.9291775,12.5439948],[104.9289906,12.5439635],[104.9286967,12.5438071],[104.9285494,12.5437514],[104.9283526,12.5437686],[104.9282036,12.5437939],[104.9280411,12.5437852],[104.927892,12.5437117],[104.9277752,12.5435333],[104.9276321,12.543372],[104.9271565,12.5431244],[104.926769,12.5429541],[104.9265055,12.5428262],[104.9262498,12.5425513],[104.9259584,12.5421536],[104.925662,12.5420832],[104.9254269,12.541593],[104.925212,12.5411714],[104.925077,12.5407603],[104.9250119,12.5403456],[104.9251097,12.5393853],[104.9252103,12.5386294],[104.9253504,12.5380612],[104.9254984,12.5376046],[104.9256134,12.537191],[104.9256263,12.5370997],[104.925634,12.5370539],[104.9253727,12.5370458],[104.9246889,12.5371051],[104.9238524,12.537183],[104.9236963,12.5372328],[104.9235701,12.5373676],[104.9232692,12.5377773],[104.9228601,12.5381955],[104.9222486,12.53878],[104.9216483,12.5392785],[104.9212012,12.5395707],[104.9209719,12.5396411],[104.9206581,12.5396836],[104.920253,12.5396491],[104.9198556,12.5395648],[104.9195634,12.5394728],[104.9193363,12.5393298],[104.9191293,12.538952],[104.9189074,12.5383452],[104.9188205,12.5380092],[104.918755,12.5378514],[104.9185112,12.5377468],[104.9181298,12.5377678],[104.9168899,12.5382971],[104.9167605,12.5383646],[104.9165632,12.5385281],[104.9163967,12.5387323],[104.916179,12.5391375],[104.9160627,12.5394386],[104.9160067,12.5397653],[104.9160245,12.54038],[104.916043,12.5406946],[104.9161924,12.5412067],[104.9162461,12.5413829],[104.9163733,12.5415063],[104.9167885,12.5417523],[104.9169178,12.5418098],[104.9168789,12.5422572],[104.916731,12.543182],[104.9165903,12.5440516],[104.9164689,12.5448421],[104.9164431,12.5452525]]}},{"type":"Feature","properties":{"kind":"road","name":"Placemark","main":false},"geometry":{"type":"LineString","coordinates":[[104.9165926,12.5452596],[104.9163809,12.5452686],[104.9101346,12.5448255],[104.9099682,12.5448101],[104.909913,12.5448833],[104.9099154,12.5449747],[104.9101087,12.5450041],[104.9103074,12.5450194],[104.9106113,12.5450406],[104.9110361,12.5450576],[104.9116796,12.5451048],[104.9125707,12.5451736],[104.9132848,12.5452459],[104.9140248,12.5453058],[104.9144507,12.5453408],[104.9153034,12.545397],[104.9163842,12.5455119],[104.9162563,12.5466261],[104.9161647,12.5472622],[104.9159803,12.5489341],[104.9157893,12.5504352],[104.9157719,12.5505714]]}},{"type":"Feature","properties":{"kind":"road","name":"Placemark","main":false},"geometry":{"type":"LineString","coordinates":[[104.9165853,12.5452748],[104.9167828,12.5452859],[104.9176496,12.5453098],[104.9181661,12.5453125],[104.9187981,12.5453266],[104.9198235,12.5453782]]}},{"type":"Feature","properties":{"kind":"road","name":"Placemark","main":false},"geometry":{"type":"LineString","coordinates":[[104.9169523,12.5429176],[104.9165926,12.5452596]]}},{"type":"Feature","properties":{"kind":"road","name":"Placemark","main":false},"geometry":{"type":"LineString","coordinates":[[104.9164367,12.5452526],[104.9163817,12.5454967]]}},{"type":"Feature","properties":{"kind":"road","name":"Placemark","main":false},"geometry":{"type":"LineString","coordinates":[[104.9165601,12.5455973],[104.9171226,12.5456089],[104.9176994,12.5456138],[104.9194134,12.5456094],[104.9198017,12.5455852],[104.9200022,12.5455909],[104.9257514,12.5460219]]}},{"type":"Feature","properties":{"kind":"road","name":"Placemark","main":false},"geometry":{"type":"LineString","coordinates":[[104.9257607,12.5458863],[104.9198235,12.5453782]]}},{"type":"Feature","properties":{"kind":"road","name":"Placemark","main":false},"geometry":{"type":"LineString","coordinates":[[104.9257514,12.5460219],[104.9259908,12.5460582],[104.9282091,12.5462849],[104.9305012,12.5465387]]}},{"type":"Feature","properties":{"kind":"road","name":"Placemark","main":false},"geometry":{"type":"LineString","coordinates":[[104.9257607,12.5458863],[104.9259816,12.5459044],[104.9282184,12.5461402],[104.9305104,12.5463488],[104.9305012,12.5465387]]}},{"type":"Feature","properties":{"kind":"road","name":"Placemark","main":false},"geometry":{"type":"LineString","coordinates":[[104.9306308,12.5435907],[104.9306308,12.5437534],[104.9306214,12.5443955],[104.9305104,12.5463488]]}},{"type":"Feature","properties":{"kind":"road","name":"Placemark","main":false},"geometry":{"type":"LineString","coordinates":[[104.9306214,12.5443955],[104.9308331,12.5443956],[104.9321954,12.5444502],[104.9340825,12.5443873],[104.9341286,12.5441974],[104.935408,12.5445052],[104.9354626,12.5443958],[104.9370281,12.5444423],[104.9385375,12.5453017],[104.9407281,12.5465502]]}},{"type":"Feature","properties":{"kind":"road","name":"Placemark","main":false},"geometry":{"type":"LineString","coordinates":[[104.9385375,12.5453017],[104.9382331,12.5480146],[104.9379932,12.5504109],[104.937984,12.5504742],[104.9379564,12.5505285]]}},{"type":"Feature","properties":{"kind":"road","name":"Placemark","main":false},"geometry":{"type":"LineString","coordinates":[[104.9401753,12.5484762],[104.9347281,12.5472709],[104.9349537,12.5463995],[104.9351085,12.5457413],[104.9354002,12.5445059]]}},{"type":"Feature","properties":{"kind":"road","name":"Placemark","main":false},"geometry":{"type":"LineString","coordinates":[[104.9302856,12.5510842],[104.9305089,12.5511048],[104.9305184,12.5509379],[104.9305206,12.5509071],[104.9306589,12.5478223],[104.9308331,12.5443956]]}},{"type":"Feature","properties":{"kind":"road","name":"Placemark","main":false},"geometry":{"type":"LineString","coordinates":[[104.9305104,12.5463488],[104.9307313,12.5464121],[104.9347169,12.5472632],[104.9347757,12.547277]]}},{"type":"Feature","properties":{"kind":"road","name":"Placemark","main":false},"geometry":{"type":"LineString","coordinates":[[104.9338419,12.5511153],[104.9338947,12.5507587],[104.9340331,12.5501843],[104.9340996,12.5498316],[104.9342394,12.5492322],[104.9343105,12.5489023],[104.9343666,12.5486333],[104.9347211,12.5472662]]}},{"type":"Feature","properties":{"kind":"road","name":"Placemark","main":false},"geometry":{"type":"LineString","coordinates":[[104.9352867,12.5509257],[104.9362902,12.5506185]]}},{"type":"Feature","properties":{"kind":"road","name":"Placemark","main":false},"geometry":{"type":"LineString","coordinates":[[104.9349734,12.5524449],[104.9352867,12.5509257]]}},{"type":"Feature","properties":{"kind":"road","name":"Placemark","main":false},"geometry":{"type":"LineString","coordinates":[[104.9259816,12.5459044],[104.9259908,12.5460582],[104.9260355,12.5504983]]}},{"type":"Feature","properties":{"kind":"road","name":"Placemark","main":false},"geometry":{"type":"LineString","coordinates":[[104.9202875,12.5497359],[104.9258146,12.5504892]]}},{"type":"Feature","properties":{"kind":"road","name":"Placemark","main":false},"geometry":{"type":"LineString","coordinates":[[104.925787,12.5503264],[104.9203177,12.5495619]]}},{"type":"Feature","properties":{"kind":"road","name":"Placemark","main":false},"geometry":{"type":"LineString","coordinates":[[104.9257401,12.5536181],[104.9258146,12.5504892]]}},{"type":"Feature","properties":{"kind":"road","name":"Placemark","main":false},"geometry":{"type":"LineString","coordinates":[[104.9259886,12.5536272],[104.9260355,12.5504983]]}},{"type":"Feature","properties":{"kind":"road","name":"Placemark","main":false},"geometry":{"type":"LineString","coordinates":[[104.9257401,12.5536181],[104.9259886,12.5536272],[104.9300758,12.5537639],[104.9301402,12.5537278],[104.9302882,12.5510692],[104.9305012,12.5465387]]}},{"type":"Feature","properties":{"kind":"road","name":"Placemark","main":false},"geometry":{"type":"LineString","coordinates":[[104.9305091,12.5511054],[104.9303484,12.5538089]]}},{"type":"Feature","properties":{"kind":"road","name":"Placemark","main":false},"geometry":{"type":"LineString","coordinates":[[104.9301217,12.5541528],[104.9301547,12.5541208],[104.9309677,12.5541472],[104.9320845,12.5541902],[104.9324668,12.5542037],[104.933178,12.5542097],[104.9351112,12.554341],[104.9351348,12.5542787],[104.9350989,12.5541758],[104.9349056,12.5541514],[104.9335556,12.5540967],[104.9322295,12.5540678],[104.9310309,12.5540211],[104.9303812,12.5540088],[104.9302286,12.5539724],[104.9301221,12.5539621],[104.9299923,12.5539466]]}},{"type":"Feature","properties":{"kind":"road","name":"Placemark","main":false},"geometry":{"type":"LineString","coordinates":[[104.9255098,12.5539255],[104.9253626,12.5538621],[104.925381,12.5537446],[104.9257304,12.5537806],[104.9267957,12.5538206],[104.9279595,12.5538394],[104.9288228,12.5538759],[104.9294795,12.5539164],[104.9298066,12.553946],[104.9299729,12.5539689],[104.93004,12.5538969],[104.9300758,12.5537639]]}},{"type":"Feature","properties":{"kind":"road","name":"Placemark","main":false},"geometry":{"type":"LineString","coordinates":[[104.9301402,12.5537278],[104.9303611,12.5538183]]}},{"type":"Feature","properties":{"kind":"road","name":"Placemark","main":false},"geometry":{"type":"LineString","coordinates":[[104.9301472,12.5618303],[104.9343726,12.5618404],[104.9346374,12.5618517]]}},{"type":"Feature","properties":{"kind":"road","name":"Placemark","main":false},"geometry":{"type":"LineString","coordinates":[[104.9301472,12.5618303],[104.9299355,12.5618393],[104.9255076,12.5618381],[104.9253603,12.5618381],[104.9199657,12.5618456]]}},{"type":"Feature","properties":{"kind":"road","name":"Placemark","main":false},"geometry":{"type":"LineString","coordinates":[[104.9255098,12.5539255],[104.9255087,12.5579134],[104.9255076,12.5618381]]}},{"type":"Feature","properties":{"kind":"road","name":"Placemark","main":false},"geometry":{"type":"LineString","coordinates":[[104.9347684,12.5620485],[104.9301288,12.5620564],[104.929943,12.562064],[104.9299355,12.5618393]]}},{"type":"Feature","properties":{"kind":"road","name":"Placemark","main":false},"geometry":{"type":"LineString","coordinates":[[104.9301472,12.5618303],[104.9301217,12.5541528]]}},{"type":"Feature","properties":{"kind":"road","name":"Placemark","main":false},"geometry":{"type":"LineString","coordinates":[[104.9300021,12.5539448],[104.9299744,12.5539719],[104.9299308,12.5540551],[104.9299265,12.5543839],[104.9299456,12.5549589],[104.929946,12.5566724],[104.9299455,12.5579914],[104.9299357,12.5589443],[104.9299288,12.5604342],[104.9299288,12.5618382]]}},{"type":"Feature","properties":{"kind":"road","name":"Placemark","main":false},"geometry":{"type":"LineString","coordinates":[[104.9259551,12.5421516],[104.9259816,12.5459044]]}},{"type":"Feature","properties":{"kind":"road","name":"Placemark","main":false},"geometry":{"type":"LineString","coordinates":[[104.9200573,12.56341],[104.9181793,12.5634185],[104.914046,12.5633991],[104.911183,12.5633982],[104.9083568,12.5634153]]}},{"type":"Feature","properties":{"kind":"road","name":"Placemark","main":false},"geometry":{"type":"LineString","coordinates":[[104.9083476,12.5635148],[104.9111829,12.5635157],[104.9140459,12.5635167],[104.9181885,12.563527],[104.9200573,12.5635095]]}},{"type":"Feature","properties":{"kind":"road","name":"Placemark","main":false},"geometry":{"type":"LineString","coordinates":[[104.9083568,12.5634153],[104.9051164,12.5634142],[104.9027689,12.5634134]]}},{"type":"Feature","properties":{"kind":"road","name":"Placemark","main":false},"geometry":{"type":"LineString","coordinates":[[104.9028057,12.563549],[104.9051072,12.5635137],[104.9083476,12.5635148]]}},{"type":"Feature","properties":{"kind":"road","name":"Placemark","main":false},"geometry":{"type":"LineString","coordinates":[[104.9027689,12.5634134],[104.9004859,12.5633854],[104.8986264,12.5634118],[104.8964078,12.5634291],[104.8938762,12.5634281],[104.8912526,12.5633999],[104.8910408,12.5634902],[104.891095,12.5660494],[104.891085,12.5678038],[104.8911301,12.5700917],[104.8911475,12.5725152],[104.8912293,12.5748845],[104.8912933,12.5760149],[104.8913759,12.5765937],[104.8915312,12.5794423],[104.8917046,12.5830776],[104.8917136,12.5835026]]}},{"type":"Feature","properties":{"kind":"road","name":"Placemark","main":false},"geometry":{"type":"LineString","coordinates":[[104.8919253,12.5836474],[104.8918519,12.5830867],[104.8916785,12.5794514],[104.8915232,12.5765756],[104.8914314,12.5760149],[104.8913582,12.5748845],[104.8912763,12.5725152],[104.891259,12.5700917],[104.8912047,12.5678219],[104.8912146,12.5660585],[104.8912249,12.5635536],[104.8938761,12.5635456],[104.8963985,12.5635557],[104.8986171,12.5635384],[104.9004767,12.563512],[104.9028057,12.563549]]}},{"type":"Feature","properties":{"kind":"road","name":"Placemark","main":false},"geometry":{"type":"LineString","coordinates":[[104.8917136,12.5835026],[104.8920815,12.5845518],[104.8926057,12.5858271]]}},{"type":"Feature","properties":{"kind":"road","name":"Placemark","main":false},"geometry":{"type":"LineString","coordinates":[[104.8927714,12.5857819],[104.8923023,12.5847508],[104.8919253,12.5836474]]}},{"type":"Feature","properties":{"kind":"road","name":"Placemark","main":false},"geometry":{"type":"LineString","coordinates":[[104.9235985,12.5423589],[104.9224142,12.5424764],[104.9213426,12.5425416],[104.920834,12.5426065],[104.9204362,12.5426271],[104.9196311,12.5427195],[104.9192612,12.5427645],[104.9187691,12.5427942],[104.9180735,12.5428572],[104.9170353,12.5429384],[104.9169523,12.5429176]]}},{"type":"Feature","properties":{"kind":"road","name":"Placemark","main":false},"geometry":{"type":"LineString","coordinates":[[104.9165926,12.5452596],[104.9165608,12.5455928],[104.9165321,12.5456465],[104.9164433,12.5456336],[104.9163781,12.5455643]]}},{"type":"Feature","properties":{"kind":"road","name":"Placemark","main":false},"geometry":{"type":"LineString","coordinates":[[104.9377927,12.5420189],[104.9374887,12.5432216],[104.9370425,12.5444417]]}},{"type":"Feature","properties":{"kind":"road","name":"Placemark","main":false},"geometry":{"type":"LineString","coordinates":[[104.9349546,12.5540455],[104.9345495,12.5540092]]}},{"type":"Feature","properties":{"kind":"road","name":"Placemark","main":false},"geometry":{"type":"LineString","coordinates":[[104.93327,12.5539546],[104.9345495,12.5540092]]}},{"type":"Feature","properties":{"kind":"road","name":"Placemark","main":false},"geometry":{"type":"LineString","coordinates":[[104.9349546,12.5540455],[104.9350376,12.5533673]]}},{"type":"Feature","properties":{"kind":"road","name":"Placemark","main":false},"geometry":{"type":"LineString","coordinates":[[104.9350376,12.5533673],[104.935093,12.553264]]}},{"type":"Feature","properties":{"kind":"road","name":"Placemark","main":false},"geometry":{"type":"LineString","coordinates":[[104.9347246,12.5532135],[104.935093,12.553264]]}},{"type":"Feature","properties":{"kind":"road","name":"Placemark","main":false},"geometry":{"type":"LineString","coordinates":[[104.931982,12.55392],[104.93327,12.5539546]]}},{"type":"Feature","properties":{"kind":"road","name":"Placemark","main":false},"geometry":{"type":"LineString","coordinates":[[104.9347246,12.5532135],[104.9348629,12.552481]]}},{"type":"Feature","properties":{"kind":"road","name":"Placemark","main":false},"geometry":{"type":"LineString","coordinates":[[104.9336847,12.5522818],[104.9348629,12.552481]]}},{"type":"Feature","properties":{"kind":"road","name":"Placemark","main":false},"geometry":{"type":"LineString","coordinates":[[104.93327,12.5539546],[104.9336847,12.5522818]]}},{"type":"Feature","properties":{"kind":"road","name":"Placemark","main":false},"geometry":{"type":"LineString","coordinates":[[104.931982,12.55392],[104.9320826,12.5533394]]}},{"type":"Feature","properties":{"kind":"road","name":"Placemark","main":false},"geometry":{"type":"LineString","coordinates":[[104.9320826,12.5533394],[104.9322669,12.552616]]}},{"type":"Feature","properties":{"kind":"road","name":"Placemark","main":false},"geometry":{"type":"LineString","coordinates":[[104.9322669,12.552616],[104.9323591,12.5521187]]}},{"type":"Feature","properties":{"kind":"road","name":"Placemark","main":false},"geometry":{"type":"LineString","coordinates":[[104.9323591,12.5521187],[104.9336847,12.5522818]]}},{"type":"Feature","properties":{"kind":"road","name":"Placemark","main":false},"geometry":{"type":"LineString","coordinates":[[104.931982,12.55392],[104.9311896,12.5538818]]}},{"type":"Feature","properties":{"kind":"road","name":"Placemark","main":false},"geometry":{"type":"LineString","coordinates":[[104.9305452,12.5538635],[104.9311896,12.5538818]]}},{"type":"Feature","properties":{"kind":"road","name":"Placemark","main":false},"geometry":{"type":"LineString","coordinates":[[104.9305452,12.5538635],[104.930429,12.55378],[104.930398,12.5537459]]}},{"type":"Feature","properties":{"kind":"road","name":"Placemark","main":false},"geometry":{"type":"LineString","coordinates":[[104.930398,12.5537459],[104.930472,12.5523352]]}},{"type":"Feature","properties":{"kind":"road","name":"Placemark","main":false},"geometry":{"type":"LineString","coordinates":[[104.9305551,12.5511597],[104.9305551,12.5511687],[104.930472,12.5523352]]}},{"type":"Feature","properties":{"kind":"road","name":"Placemark","main":false},"geometry":{"type":"LineString","coordinates":[[104.9305551,12.5511597],[104.9315769,12.5512775]]}},{"type":"Feature","properties":{"kind":"road","name":"Placemark","main":false},"geometry":{"type":"LineString","coordinates":[[104.9311896,12.5538818],[104.931291,12.553303]]}},{"type":"Feature","properties":{"kind":"road","name":"Placemark","main":false},"geometry":{"type":"LineString","coordinates":[[104.9314017,12.5524802],[104.931291,12.553303]]}},{"type":"Feature","properties":{"kind":"road","name":"Placemark","main":false},"geometry":{"type":"LineString","coordinates":[[104.9314017,12.5524802],[104.9315769,12.5512775]]}},{"type":"Feature","properties":{"kind":"road","name":"Placemark","main":false},"geometry":{"type":"LineString","coordinates":[[104.930472,12.5523352],[104.9314017,12.5524802]]}},{"type":"Feature","properties":{"kind":"road","name":"Placemark","main":false},"geometry":{"type":"LineString","coordinates":[[104.931291,12.553303],[104.9320826,12.5533394]]}},{"type":"Feature","properties":{"kind":"road","name":"Placemark","main":false},"geometry":{"type":"LineString","coordinates":[[104.9314017,12.5524802],[104.9322669,12.552616]]}},{"type":"Feature","properties":{"kind":"road","name":"Placemark","main":false},"geometry":{"type":"LineString","coordinates":[[104.9323442,12.5434097],[104.9321954,12.5444502]]}},{"type":"Feature","properties":{"kind":"road","name":"Placemark","main":false},"geometry":{"type":"LineString","coordinates":[[104.9374887,12.5432216],[104.9378127,12.5433298],[104.9384456,12.5435105],[104.9389915,12.5437103],[104.9397725,12.5439979],[104.9403729,12.5441925],[104.9408558,12.5443409]]}},{"type":"Feature","properties":{"kind":"road","name":"Untitled Path","main":false},"geometry":{"type":"LineString","coordinates":[[104.9355819,12.5425733],[104.9356023,12.5428158],[104.9355594,12.5435209],[104.9354724,12.5441089],[104.9354622,12.5443978]]}},{"type":"Feature","properties":{"kind":"road","name":"Untitled Path","main":false},"geometry":{"type":"LineString","coordinates":[[104.9341318,12.5441921],[104.934141,12.543971],[104.9341974,12.5436565],[104.934242,12.5434044],[104.934266,12.5431696],[104.9342715,12.5430957]]}},{"type":"Feature","properties":{"kind":"road","name":"Untitled Path","main":false},"geometry":{"type":"LineString","coordinates":[[104.9168874,12.5417887],[104.9170433,12.5417505],[104.9171792,12.541612],[104.9176951,12.5411213],[104.9185722,12.5404435],[104.9196682,12.5395074]]}},{"type":"Feature","properties":{"kind":"road","name":"Untitled Path","main":false},"geometry":{"type":"LineString","coordinates":[[104.9259584,12.5421536],[104.9260742,12.5420401]]}},{"type":"Feature","properties":{"kind":"road","name":"Untitled Path","main":false},"geometry":{"type":"LineString","coordinates":[[104.9256676,12.5420766],[104.9257049,12.5429992],[104.9257721,12.545877],[104.9257659,12.5460177],[104.9257494,12.5469555],[104.9257617,12.548483],[104.9257908,12.5503224],[104.9258111,12.5504864],[104.9260328,12.550512],[104.9302864,12.5510845]]}},{"type":"Feature","properties":{"kind":"road","name":"Untitled Path","main":false},"geometry":{"type":"LineString","coordinates":[[104.9170608,12.5417346],[104.9171028,12.5417748],[104.9171253,12.5418234],[104.9171113,12.5419338],[104.9169534,12.5429153]]}},{"type":"Feature","properties":{"kind":"road","name":"Untitled Path","main":false},"geometry":{"type":"LineString","coordinates":[[104.9198385,12.5453798],[104.919811,12.5455849],[104.9199386,12.5463696],[104.919989,12.5467165],[104.9200892,12.547322],[104.9202216,12.5479696],[104.9203382,12.5484657]]}},{"type":"Feature","properties":{"kind":"road","name":"Untitled Path","main":false},"geometry":{"type":"LineString","coordinates":[[104.9351164,12.5543442],[104.935003,12.5551538],[104.9348903,12.5558514],[104.9347827,12.5563678],[104.9347155,12.5572705],[104.9346936,12.5575349],[104.9347084,12.5575943],[104.9348017,12.5576157],[104.9350661,12.5576718],[104.9351221,12.5577068],[104.9351526,12.5577332],[104.9351313,12.557872],[104.9350752,12.5583683],[104.9348748,12.5586164],[104.9348025,12.5587791],[104.9346354,12.5594654],[104.9344461,12.5608273],[104.9343289,12.5618359]]}},{"type":"Feature","properties":{"kind":"road","name":"Untitled Path","main":false},"geometry":{"type":"LineString","coordinates":[[104.9257572,12.5536181],[104.9257274,12.553779]]}},{"type":"Feature","properties":{"kind":"road","name":"Untitled Path","main":false},"geometry":{"type":"LineString","coordinates":[[104.9257439,12.5536125],[104.9255908,12.5536233],[104.9251108,12.5535938],[104.9248233,12.5535588],[104.9242324,12.5535032],[104.9240356,12.5534645],[104.9239382,12.5534238],[104.9236283,12.5534258],[104.9228957,12.553379],[104.9227989,12.5533791],[104.9225576,12.5533418],[104.9221992,12.5532517],[104.9219843,12.5531908],[104.9215381,12.5531186],[104.9210908,12.5529999],[104.9206943,12.5529383],[104.9199636,12.5527407],[104.9198509,12.5526995],[104.9197655,12.5526897],[104.9204529,12.5497651]]}},{"type":"Feature","properties":{"kind":"road","name":"Untitled Path","main":false},"geometry":{"type":"LineString","coordinates":[[104.9253808,12.5537442],[104.9247988,12.5537161],[104.9239843,12.5536155],[104.9233138,12.5535669],[104.9228713,12.5535681],[104.9223173,12.55344],[104.9215379,12.5533011],[104.9206259,12.5530586],[104.9196215,12.5528524],[104.9196494,12.5534299],[104.9197565,12.5550498],[104.9198872,12.5585977],[104.919954,12.5618461],[104.9200504,12.5634104]]}},{"type":"Feature","properties":{"kind":"road","name":"Untitled Path","main":false},"geometry":{"type":"LineString","coordinates":[[104.9200551,12.5635123],[104.9200952,12.5635255],[104.9202472,12.5635141],[104.920311,12.5635033],[104.9203493,12.5634161],[104.9203043,12.5629088],[104.9202683,12.5622107],[104.9202882,12.5621129],[104.920352,12.5620626],[104.9213686,12.5620502],[104.9231253,12.5620631],[104.9253736,12.5620757],[104.9253678,12.5633393],[104.9253623,12.564839],[104.9253358,12.5677421],[104.9253087,12.5694506],[104.9253981,12.5694934],[104.9255138,12.5694933],[104.9255223,12.5688929],[104.9255159,12.5677745],[104.9255288,12.5658409],[104.9255324,12.5643486],[104.925513,12.5624416],[104.9255059,12.5620797],[104.9299389,12.5620545],[104.9299449,12.5638829],[104.9299426,12.5668391],[104.929965,12.5683854],[104.929953,12.568514],[104.929915,12.5686437],[104.9297826,12.5687838],[104.9290251,12.5694845],[104.9288414,12.569671],[104.928797,12.5697808],[104.9288095,12.5698971],[104.9288505,12.5700397],[104.9288188,12.5701074],[104.9286453,12.5702224],[104.928577,12.57044],[104.9285024,12.5706889]]}},{"type":"Feature","properties":{"kind":"road","name":"Untitled Path","main":false},"geometry":{"type":"LineString","coordinates":[[104.9028283,12.5635513],[104.9029484,12.5638835],[104.9030818,12.564341],[104.9031329,12.5644983],[104.9031609,12.5647453],[104.9032308,12.5651911],[104.9033338,12.5654856],[104.9033758,12.5657061],[104.9035084,12.5660302],[104.9036342,12.5663209],[104.9037119,12.5665681],[104.9037227,12.5669244],[104.9037666,12.5674979],[104.9037959,12.5677248],[104.9039499,12.5679393],[104.9040451,12.5681284],[104.9040519,12.5681469],[104.9041584,12.5684558],[104.9042289,12.5692006],[104.9042572,12.5697795],[104.9042563,12.5699731],[104.904323,12.5700909]]}},{"type":"Feature","properties":{"kind":"road","name":"Untitled Path","main":false},"geometry":{"type":"LineString","coordinates":[[104.8986144,12.5635446],[104.8990971,12.5678338]]}},{"type":"Feature","properties":{"kind":"road","name":"Untitled Path","main":false},"geometry":{"type":"LineString","coordinates":[[104.9203103,12.563506],[104.9203688,12.5641136],[104.9213575,12.563876],[104.9214007,12.563892],[104.9214661,12.5642573],[104.9216144,12.5648908],[104.9221244,12.5648613],[104.9225586,12.5648683],[104.922943,12.5648898],[104.9232874,12.5649041],[104.9234888,12.5649113],[104.9235839,12.5649737],[104.9236614,12.5654348],[104.9238758,12.565482],[104.9238457,12.5656264]]}},{"type":"Feature","properties":{"kind":"road","name":"","main":false},"geometry":{"type":"LineString","coordinates":[[104.9348906,12.5522911],[104.9351486,12.5511066],[104.9340163,12.5513685],[104.9329116,12.551531],[104.932617,12.551531],[104.9325525,12.5520012],[104.9340161,12.5521462],[104.9348906,12.5522911]]}},{"type":"Feature","properties":{"kind":"road","name":"","main":false},"geometry":{"type":"LineString","coordinates":[[104.9255059,12.5620797],[104.9253736,12.5620757]]}},{"type":"Feature","properties":{"kind":"road","name":"","main":false},"geometry":{"type":"LineString","coordinates":[[104.9253647,12.5538602],[104.9253562,12.5563035],[104.9253448,12.5579885],[104.9253504,12.5618347]]}},{"type":"Feature","properties":{"kind":"farm-road"},"geometry":{"type":"LineString","coordinates":[[104.8986144,12.5635446],[104.8990971,12.5678338]]}},{"type":"Feature","properties":{"kind":"farm-road"},"geometry":{"type":"LineString","coordinates":[[104.9301209,12.5620582],[104.9301374,12.5622328],[104.9301467,12.5626411],[104.9301359,12.5636843],[104.9301363,12.568326],[104.9301209,12.5683796],[104.9299664,12.5683767]]}},{"type":"Feature","properties":{"kind":"farm-road"},"geometry":{"type":"LineString","coordinates":[[104.8964409,12.5579237],[104.8964488,12.5579396],[104.8965709,12.5579862],[104.8966958,12.5580733],[104.8968182,12.5583114],[104.8968919,12.5585143],[104.8970093,12.5586863],[104.89729,12.5589587],[104.8977468,12.5594473],[104.8984173,12.5600994],[104.8987989,12.5604735],[104.8990107,12.5607246],[104.8990174,12.56075],[104.8991139,12.5609373],[104.8991495,12.5610491],[104.8993029,12.5611359],[104.8995085,12.5611882],[104.8997142,12.5612594],[104.9000632,12.5613406],[104.9003309,12.5614019],[104.9004568,12.5615004],[104.900609,12.5615813],[104.9007793,12.561681],[104.9010279,12.5617995],[104.9012113,12.5619476],[104.9013931,12.5620029],[104.9014955,12.5621921],[104.9015904,12.5623829],[104.9016249,12.5625674],[104.9017018,12.5627051],[104.9017883,12.5628442],[104.9019336,12.5629046],[104.9021503,12.5629553],[104.9024387,12.5629968],[104.9027248,12.5630921],[104.9027245,12.5634102]]}},{"type":"Feature","properties":{"kind":"farm-road"},"geometry":{"type":"LineString","coordinates":[[104.8937082,12.5633267],[104.8936989,12.56297],[104.8936966,12.5628543],[104.8936884,12.5624563],[104.8936738,12.5621968],[104.8936594,12.561942],[104.8937028,12.5619373],[104.8937447,12.5619328],[104.8937874,12.5619265],[104.8938137,12.561906],[104.8938249,12.5618973],[104.8938388,12.5618492],[104.8938354,12.5617831],[104.8938202,12.5617215],[104.8938147,12.5617123],[104.8937823,12.561655],[104.8937569,12.5616431],[104.8937424,12.561643],[104.8936928,12.561649],[104.8936487,12.561658],[104.8936463,12.5615192],[104.8936354,12.5613223],[104.8936261,12.5611545],[104.8935823,12.5603657],[104.8935755,12.5602621],[104.8935765,12.5601703],[104.8935495,12.5601415],[104.8935265,12.5601177],[104.8935249,12.5600548],[104.8935206,12.5598904],[104.8935137,12.5596215],[104.8935126,12.5595781],[104.8935059,12.5594375],[104.8935,12.559314],[104.8934887,12.5590752],[104.8934869,12.5590365],[104.8934713,12.5587076],[104.8934657,12.5585893],[104.8934679,12.5584573],[104.8934598,12.5584229],[104.8934446,12.5583591],[104.8933289,12.5582816],[104.8932168,12.5581532],[104.8932009,12.5581387],[104.8931779,12.5581176],[104.893155,12.5580965],[104.8930897,12.5580367],[104.8929105,12.5580189],[104.8923939,12.5580595],[104.8921934,12.5580961],[104.8920786,12.5581172],[104.8919637,12.5581382],[104.8919483,12.558141],[104.8907847,12.5584142],[104.8908026,12.5584679],[104.8914012,12.5583543],[104.8918227,12.5582531],[104.8923356,12.5581642],[104.892762,12.5581155],[104.8930273,12.5581029],[104.8931183,12.5581368],[104.8931892,12.5582525],[104.8932797,12.5583399],[104.8933911,12.5584465],[104.8934108,12.5586327],[104.8934662,12.5600795],[104.8935111,12.5602622],[104.8935399,12.5605595],[104.893609,12.5616048],[104.8935824,12.561675],[104.893534,12.5617572],[104.8935446,12.5618842],[104.8936091,12.5619611],[104.8936563,12.5627374],[104.8936799,12.5633],[104.893681,12.5633267],[104.8937082,12.5633267],[104.8937078,12.5633084]]}},{"type":"Feature","properties":{"kind":"farm-road"},"geometry":{"type":"LineString","coordinates":[[104.9028283,12.5635513],[104.8986144,12.5635446],[104.8976741,12.5635457],[104.8961168,12.5635477],[104.8947933,12.5635493],[104.8912249,12.5635536],[104.8938761,12.5635456],[104.8946969,12.5635489],[104.8947933,12.5635493],[104.8961168,12.5635477],[104.8976741,12.5635457],[104.8986144,12.5635446],[104.9028283,12.5635513],[104.9029484,12.5638835],[104.903072,12.5643076],[104.9030818,12.564341],[104.9031329,12.5644983],[104.9031609,12.5647453],[104.9032308,12.5651911],[104.9033338,12.5654856],[104.9033758,12.5657061],[104.9035084,12.5660302],[104.9036342,12.5663209],[104.9037119,12.5665681],[104.9037227,12.5669244],[104.9037666,12.5674979],[104.9037959,12.5677248],[104.9039499,12.5679393],[104.9040451,12.5681284],[104.9040519,12.5681469],[104.9041584,12.5684558],[104.9042289,12.5692006],[104.9042572,12.5697795],[104.9042563,12.5699731],[104.904323,12.5700909]]}},{"type":"Feature","properties":{"kind":"farm-road"},"geometry":{"type":"LineString","coordinates":[[104.9094485,12.5577988],[104.909422,12.5578009],[104.9093647,12.5578789],[104.9093098,12.5579687],[104.9092353,12.5581048],[104.9091433,12.5583368],[104.9090829,12.5585169],[104.908994,12.5587069],[104.9088797,12.558927],[104.9087836,12.5590932],[104.9087132,12.5592617],[104.9087231,12.5594158],[104.9087295,12.5597484],[104.908745,12.5599314],[104.9087109,12.5602529],[104.9086955,12.5606558],[104.908695,12.5608622],[104.9086613,12.5613938],[104.9086404,12.56193],[104.9086,12.5623083],[104.9084967,12.5632936],[104.9085198,12.5633271],[104.908541,12.5633042],[104.9085653,12.563098],[104.9085902,12.5629422],[104.908596,12.5628385],[104.9086223,12.562539],[104.9087029,12.5618031],[104.9087139,12.5614073],[104.9087261,12.5611784],[104.9087469,12.5608228],[104.9087443,12.5606578],[104.9087681,12.5604401],[104.9087761,12.5602708],[104.9087858,12.5601642],[104.9088096,12.5600296],[104.9088023,12.5599553],[104.908807,12.5598042],[104.9087914,12.5597225],[104.9087786,12.559561],[104.9087754,12.5594035],[104.9087803,12.5592793],[104.9088098,12.5591347],[104.9088943,12.5589775],[104.908953,12.558884],[104.9090266,12.5587529],[104.9091154,12.5585396],[104.9092096,12.5583048],[104.9092961,12.5580905],[104.909367,12.5579733],[104.9094213,12.5578944],[104.909438,12.5578417],[104.9094485,12.5577988],[104.909422,12.5578009]]}},{"type":"Feature","properties":{"kind":"farm-road"},"geometry":{"type":"LineString","coordinates":[[104.8875475,12.5801729],[104.8876198,12.5805107],[104.8878142,12.580916],[104.8880995,12.5812297],[104.8884773,12.5815384],[104.8887385,12.5817405],[104.8891558,12.5820649],[104.8892791,12.5821608],[104.8899898,12.5828735],[104.8903747,12.5832021],[104.8907051,12.5835361],[104.8909488,12.583904],[104.8911504,12.5842373],[104.8914541,12.5846431],[104.8918897,12.5851295],[104.8921795,12.5853509],[104.892389,12.5855861],[104.892583,12.5857981],[104.8928055,12.5861019],[104.8929981,12.5862214],[104.8932127,12.5863174],[104.89339,12.5866769],[104.8934098,12.5867022],[104.8936623,12.5870252],[104.8940048,12.5873459],[104.8940608,12.5874107],[104.8943751,12.5877751],[104.8943928,12.5877955],[104.8946971,12.5882241],[104.8950098,12.5885956],[104.8952818,12.5888739],[104.8955157,12.589002],[104.8957564,12.5890554],[104.8960309,12.589067],[104.8960968,12.5891365],[104.8961112,12.5891402],[104.8961597,12.5892022],[104.8962697,12.5895293]]}},{"type":"Feature","properties":{"kind":"farm-road"},"geometry":{"type":"LineString","coordinates":[[104.8926057,12.5858271],[104.8925051,12.5867361],[104.8912186,12.5871398],[104.8912462,12.593218],[104.890366,12.597111],[104.888974,12.598784],[104.886781,12.599074],[104.8785859,12.5980999],[104.8796599,12.6143798]]}}]}
